id,name,address,lattitude,longitude
1,나로도,내나로도 구룡마을 갯바위,34.5436111,127.4536111
2,제주도 서부·차귀도·비양도,비양도 북측 큰여,33.4116667,126.2236111
3,제주도 북서부,용두암 낚시터,33.5166667,126.5077778
4,제주도 동부,방두곶 좌측 갯바위,33.4344444,126.9288889
5,제주도 남동부,가막코지 갯바위,33.2386111,126.6638889
6,대청도·소청도,대청도 기름아가리(기름바다),37.8063889,124.6941667
7,대청도·소청도,대청도 지두리해변 갯바위,37.8222222,124.6797222
8,자월도,마바위,37.2688889,126.2919444
9,자월도,분모골,37.2458333,126.3302778
10,자월도,항도(목섬) 부근,37.2552778,126.2897222
11,이작도·승봉도,대이작도 오형제바위,37.1811111,126.2547222
12,이작도·승봉도,대이작도 토끼바위 부근,37.1597222,126.2730556
13,백아도·굴업도,굴업도 해수욕장 북쪽 갯바위,37.1944444,125.9836111
14,입파도·국화도,국화도 도지섬 부근,37.0544444,126.5497222
15,풍도·난지도,대난지도 도끝이 부근,37.0441667,126.4494444
16,원산도·삽시도,원산도 개간지,36.3708333,126.3844444
17,원산도·삽시도,삽시도 촛대바위,36.3288889,126.3397222
18,호도·녹도·외연도,호도 안통,36.2955556,126.2575
19,어청도·연도,어청도 등대 부근,36.1261111,125.9666667
20,십이동파도·비안도,비안도 제방,35.735,126.4577778
21,말도·방축도,말도 단도 부근,35.8555556,126.3141667
22,선유도·무녀도·장자도·신시도,무녀도 구마을 백사장 부근,35.8005556,126.4380556
23,왕등도·위도,하왕등도 코구렁,35.6366667,126.1297222
24,왕등도·위도,위도 모여 부근,35.5980556,126.2580556
25,비금도·도초도,비금도 계남서 부근,34.7997222,125.9711111
26,금오도·안도,금오도 학동마을 이장바위,34.5013889,127.7530556
27,금오도·안도,안도 벼락바위,34.4761111,127.8208333
28,사량도,상사량도 한탄여 부근,34.8272222,128.1827778
29,사량도,상사량도 옥바위 부근,34.8427778,128.1677778
30,욕지도,대송끝 곶부리,34.6525,128.2338889
31,욕지도,야포마을 갯바위,34.6347222,128.2797222
32,욕지도,낮은목 부근 갯바위,34.6213889,128.2725
33,욕지도,총바위 부근,34.6316667,128.2286111
34,미륵도,풍화리 남서측 곶부리,34.8180556,128.3355556
35,비진도·매물도,비진도 노루여 들머리 부근,34.7044444,128.4522222
36,비진도·매물도,대매물도 동섬치,34.64,128.5852778
37,비진도·매물도,대매물도 촛대바위 부근,34.6325,128.5655556
38,비진도·매물도,소매물도 마을 서측 갯바위,34.6286111,128.5455556
39,거제도 북동부,덕포 초소밑 갯바위,34.9105556,128.72
40,거제도 북동부,장승포 나래바위,34.8655556,128.7391667
41,연평도,얼굴바위 앞,37.6041667,125.7194444
42,연평도,모이도 갯바위,37.6438889,125.7175
43,영종도·용유도,모래 채집장 ,37.4983333,126.44
44,영종도·용유도,잠진도 연륙교,37.4202778,126.4144444
45,안면도 북부,할미할아비 바위,36.5013889,126.3308333
46,안면도 남 부,망재,36.4380556,126.3322222
47,안면도 남 부,장삼포 해변 남측 갯바위,36.4152778,126.3622222
48,안면도 남 부,소도 갯바위,36.3980556,126.4308333
49,가의도,동남측 첫번째 곶부리,36.6723889,126.0813889
50,개야도,작은철탑부근 묘지 아래 갯바위,36.0341667,126.5477778
51,개야도,치섬 북측 갯바위,36.0391667,126.5252778
52,개야도,작은 철탑 북측 갯바위,36.0383333,126.5405556
53,개야도,장구섬 서측 갯바위,36.045,126.5394444
54,안마도·석만도,장재여 부근 갯바위,35.3602778,126.0069444
55,송이도,검은바위 갯바위,35.2830556,126.1527778
56,노화도·보길도·소안도,소안도 돈암각 부근 갯바위,34.1458333,126.6283333
57,신지도,송곡리 호안로 갯바위,34.3455556,126.7869444
58,신지도,덕구미 부근,34.3416667,126.8986111
59,신지도,가인항 양식장 부근 갯바위,34.3144444,126.8655556
60,신지도,월양항 부근 제방,34.3088889,126.8391667
61,청산도·대모도,청산도 항도 제방 부근 갯바위,34.1858333,126.9197222
62,청산도·대모도,청산도 노랑바위,34.1508333,126.9083333
63,거금도,우두마을 곶부리,34.4413889,127.1019444
64,금일도·생일도,금곡 해수욕장 북측 갯바위,34.3086111,126.9616667
65,금일도·생일도,생일도 목섬,34.3194444,127.0138889
66,초도,외항도,34.2108333,127.2222222
67,돌산도,월전포 동측 갯바위,34.6988889,127.7858333
68,남해도 북부,서상리 갯바위,34.7927778,127.8344444
69,두미도,의자여,34.6955556,128.1766667
70,두미도,등대포인트,34.7111111,128.1752778
71,울릉도,태하 갯바위,37.5155556,130.7936111
72,울릉도,딴바위 갯바위,37.5472222,130.8927778
73,추자도,대서리 갯바위,33.9658333,126.2927778
74,당항포 부근,해상펜션 앞,35.0713083,128.4498333
75,진해항 부근,삼우골 서측,35.1016083,128.5420389
76,수영만 부근,고두말 근처바위,35.1551056,129.1772528
77,대청도·소청도,소청도 예동항 동쪽 갯바위,37.7686111,124.7552778
78,덕적도·소야도,소야도 뒷장불,37.2241667,126.1591667
79,이작도·승봉도,소이작도 돌살부리 부근,37.1875,126.2188889
80,이작도·승봉도,소이작도 간뿌리 부근,37.1822222,126.2152778
81,문갑도·선갑도,문갑도 문갑해수욕장 갯바위,37.1811111,126.1144444
82,백아도·굴업도,백아도 기차바위 부근,37.0841667,125.9677778
83,영흥도·선재도·대부도·구봉도,신지도 대량곶 부근 갯바위,37.2566667,126.5241667
84,십이동파도·비안도,십이동파도 땅콩여,36.0019444,126.2241667
85,십이동파도·비안도,십이동파도 등대섬 덜컥바위,35.9875,126.2213889
86,말도·방축도,말도 등대 부근 갯바위,35.8586111,126.3158333
87,말도·방축도,방축도 북동쪽 곶부리,35.8561111,126.3863889
88,선유도·무녀도·장자도·신시도,무녀도 남들포인트,35.8019444,126.4152778
89,제주도 남서부·가파도·마라도,가파도 남측 갯바위,33.1616667,126.2711111
90,제주도 남서부·가파도·마라도,장군바위 부근 갯바위,33.1122222,126.2688889
91,홍도,병풍바위 우측,34.6676472,125.1847167
92,홍도,주전자바위 인근,34.68285,125.1783111
93,홍도,석화굴 인근,34.7105556,125.199625
94,홍도,공작새바위 하단,34.6954472,125.2127167
95,만재도,남대문 부근,34.20535,125.4825361
96,만재도,등대 밑 부근,34.2146306,125.4721889
97,목포 부근,솔섬,34.8622194,126.3668694
98,목포 부근,정주도,34.8137028,126.3590417
99,화원 부근,월래경로당 앞,34.7173361,126.2749333
100,화원 부근,시하도,34.7007417,126.2424556
101,화원 부근,석호앞들,34.645475,126.2679944
102,거차수도 부근,상하죽도 교량 부근,34.2517361,125.9260139
103,거차수도 부근,동거차 수영장,34.2364167,125.9267917
104,독거군도 부근,간암여,34.2315361,126.1704806
105,추자군도,오리똥여 부근,33.9298,126.3287333
106,추자군도,염도 우측,33.974,126.3090111
107,추자군도,추포도 남측 갯바위,33.9857556,126.32115
108,해남반도 부근,양도,34.2993139,126.5091389
109,완도 부근,방산리 해안,34.4384083,126.6968944
110,완도 부근,고마도 서측 해안,34.4134694,126.7006861
111,강진만 부근,가우도 출렁다리 근처,34.5349667,126.7898611
112,강진만 부근,가우도 남측 갯바위,34.5303194,126.7832778
113,득량만 부근,장환마을하단,34.5575806,127.0024833
114,득량만 부근,신흥 부근,34.5879278,127.1434972
115,득량만 부근,득량도 우측하단끝,34.5964194,127.1102694
116,고흥호 부근,연동부근해안,34.6934167,127.1465583
117,거금수도 부근,달금골 동측,34.5120556,127.4071111
118,낭도 부근,둔병도 동측,34.6274194,127.5520111
119,낭도 부근,상화도 서측,34.5970972,127.593875
120,순천만 부근,이천리갯바위 끝,34.7452333,127.581825
121,순천만 부근,소여자도 갯바위,34.7574139,127.5106389
122,여수엑스포 부근,용주마을 부근,34.7189306,127.6365278
123,광양만 부근,한려주유소 앞,34.9503361,127.8821944
124,광양만 부근,유포마을 부근,34.8627222,127.8114444
125,손죽열도 부근,손죽 서측,34.2846833,127.3483056
126,손죽열도 부근,소거문 동측,34.2901389,127.4027528
127,간수제도,소평도 서측 홈통,34.2573306,127.4482611
128,대삼부도,첫곶부리 갯바위,34.0567917,127.3860972
129,송이도,민머리,35.2702778,126.1441667
130,임자도·사옥도,어유미도,35.1311111,126.1013889
131,고이도·매화도·선도·증도,대식도 갯바위,34.9293889,126.2958333
132,고이도·매화도·선도·증도,고이도 북측 끝단여,34.9702778,126.2733333
133,고이도·매화도·선도·증도,나룻구지,35.0177778,126.1147222
134,고이도·매화도·선도·증도,오징어바위,34.9633333,126.1330556
135,안좌도·팔금도,우이산 철탑 아래,34.7608333,126.1411111
136,우이도,소래등대 밑,34.6177778,125.8030556
137,우이도,송도 남측 갯바위,34.6133333,125.8688889
138,장산도,진섬 갯바위,34.6352778,126.2038889
139,장산도,가세 섬,34.6491667,126.1105556
140,개도·하의도·신의도,깊은기미,34.5333333,126.0283333
141,상조도·하조도·관매도,당도 안통,34.3215833,126.0548889
142,상조도·하조도·관매도,장산넘어 어장줄 자리,34.2375,126.0672222
143,가거도,큰여,34.0511111,125.1186111
144,가거도,목난개 갯바위,34.0711111,125.0980556
145,가거도,물성밑 갯바위,34.0541667,125.1427778
146,입파도·국화도,입파도 동남측 돌출부,37.0975,126.5397222
147,호도·녹도·외연도,호도해수욕장 갯바위,36.2925,126.2636111
148,십이동파도·비안도,십이동파도 똥섬,35.9827778,126.2397222
149,왕등도·위도,위도 용멀 갯바위,35.6158333,126.2758333
150,석모도,민머루해수욕장 앞 갯바위,37.65,126.3341667
151,개야도,에게이 서측 갯바위,36.0363889,126.5130556
152,청산도 방파제,지리청산해변 근처,34.198308,126.859862
153,목포 부근,삼호제 북측,34.8575667,126.3670833
154,낭도 부근,낭도산 남측,34.6169444,127.55765
155,대삼부도,덜섬사이 골창여,34.0549306,127.3878889
156,고이도·매화도·선도·증도,마당여 갯바위,34.9183333,126.2125
157,상조도·하조도·관매도,옥도 동쪽 곶부리,34.3572222,126.0213889
158,두미도,얼굴바위,34.6897222,128.1991667
159,덕적도·소야도,"덕적도 큰이마, 작은이마",37.2116667,126.1238889
160,선유도·무녀도·장자도·신시도,장자도 연륙교 부근,35.8127778,126.4
161,안마도·석만도,쌀썩은여 갯바위,35.3358333,126.0213889
162,손죽열도 부근,손죽 동측,34.2872028,127.3711694
163,대삼부도,동측 갯바위,34.0566056,127.3973056
164,덕적도·소야도,덕적도 밭지름해수욕장 갯바위,37.2144444,126.1477778
165,어청도·연도,연도 자갈밭,36.0775,126.4391667
166,선유도·무녀도·장자도·신시도,선유도 남도 갯바위,35.805,126.4086111
167,금오도·안도,안도 서고지 북쪽 제방 끝,34.4822222,127.7963889
168,노화도·보길도·소안도,보길도 동쪽 곶부리,34.1486111,126.6161111
169,안면도 남 부,장곳 갯바위,36.4122222,126.37
170,비금도·도초도,시목해수욕장 부근 갯바위,34.6638889,125.9522222
171,비진도·매물도,소매물도 남쪽 취끝,34.6236111,128.5466667
172,개야도,개야 사수건 등대,36.0347222,126.5344444
173,신지도,무인등대 부근,34.3163889,126.7938889
174,여서도·거문도,거문도 배치바위 부근,34.0063889,127.3227778
175,제주도 북동부·우도,검멀레해수욕장 좌측갯바위,33.4966667,126.9691667
176,제주도 동부,신양포구 갯바위,33.4327778,126.9166667
177,제주도 남부,논짓물 주변,33.2363889,126.39
178,제주도 남서부·가파도·마라도,산이물,33.2069444,126.2916667
179,제주도 남서부·가파도·마라도,가파도 제단 밑 갯바위,33.1669444,126.28
180,독거군도 부근,화단도,34.2211722,126.1498
181,추자군도,신양리 갯바위,33.9407333,126.3162417
182,거금수도 부근,지죽도 북측,34.4405194,127.2998889
183,낭도 부근,낭도 터미널 앞,34.6040722,127.5386944
184,황제도,알매섬,34.1959333,127.0761889
185,손죽열도 부근,소거문 해안,34.28235,127.3930472
186,대삼부도,노루섬 갯바위,34.0599722,127.3842639
187,개도·하의도·신의도,파장여,34.5644444,126.0225
188,상조도·하조도·관매도,수옥도 갯바위,34.2719444,126.055
189,가거도,성건여,34.0752778,125.0833333
190,남해도 북부,여계마을 해안 갯바위,34.8191667,127.8236111
191,남해도 동부·신수도·창선도,잘푸여 갯바위,34.8969444,128.0827778
192,한산도·용초도,용머리,34.7327778,128.4883333
193,추자도,하추자도 양식장 앞 해안,33.95,126.3027778
194,자란만 부근,오토캠핑장 앞,34.9554444,128.3303333
195,연화도 부근,한숨자리 인근,34.6409778,128.3578806
196,갈도 부근,빗바위 근처,34.5691667,128.1899917
197,진해만 부근,지도 서측 해안길 끝,34.9086889,128.4643583
198,입파도·국화도,입파도 북동측 끝단,37.1111111,126.5405556
199,풍도·난지도,풍도 남쪽 마을 부근,37.1072222,126.3947222
200,원산도·삽시도,원산도 용뿌리 갯바위,36.3644444,126.4080556
201,호도·녹도·외연도,외연도 서측 갯바위,36.2277778,126.0708333
202,어청도·연도,어청도 불탄서 부근,36.1127778,125.9722222
203,선유도·무녀도·장자도·신시도,신시도 북단 곶부리,35.8316667,126.4433333
204,금오도·안도,금오도 용두 갯바위,34.5380556,127.6972222
205,사량도,하사량도 말목섬 부근,34.8005556,128.2269444
206,욕지도,양판구미 일대,34.6116667,128.2413889
207,미륵도,매암말 부근 갯바위,34.7825,128.4341667
208,거제도 남부,여차 남쪽끝 갯바위,34.7091667,128.6358333
209,거제도 남부,예구마을 제방 끝 갯바위,34.7997222,128.7147222
210,시도,조각공원 서측 갯바위,37.5283333,126.4041667
211,영종도·용유도,영종도 남측제방 초소,37.4208333,126.4425
212,대삼부도,동굴 우측,34.0610833,127.3893806
213,진주만 부근,산분령 유료낚시터,34.9509889,128.0343556
214,진주만 부근,산분령 앞 마동도,34.9350556,128.0337389
215,추도 부근,구들빗등,34.7516111,128.299075
216,추도 부근,북바위 근처,34.7508861,128.2896139
217,연화도 부근,십리골마을 동측 갯바위,34.6484472,128.362075
218,연화도 부근,소쿠리강정 갯바위,34.6389167,128.3676806
219,갈도 부근,붉은바위,34.5688833,128.1890056
220,갈도 부근,귀신여,34.5584194,128.1792194
221,독거군도 부근,구도 남단,34.2614833,126.1776167
222,대삼부도,북동쪽 홈통,34.0623222,127.3874167
223,연도,절리서 근처 갯바위,34.4301889,127.785075
224,추도 부근,농바위 끝,34.7514806,128.3068611
225,대청도·소청도,대청도 사탄동해변 갯바위,37.8133333,124.6772222
226,이작도·승봉도,소이작도 해군기지 부근,37.1769444,126.2405556
227,가거도,복여,34.0713889,125.1238889
228,제부도, 제부도 소방서 앞,37.1627778,126.6219444
229,풍도·난지도, 풍도 채석장 남측,37.1055556,126.3797222
230,원산도·삽시도, 삽시도 면삽지,36.3377778,126.3411111
231,어청도·연도, 어청도 한우담 부근,36.1180556,125.9947222
232,미륵도, 대양화 제방,34.8302778,128.3719444
233,비진도·매물도,대매물도 설풍자리,34.635,128.5580556
234,영종도·용유도,삼목수문,37.4986111,126.4725
235,신지도, 대곡리 남쪽 양식장 배수구 부근,34.3519444,126.8427778
236,제주도 남서부·가파도·마라도,큰아끈여 갯바위,33.1691667,126.2633333
237,만재도,오동여 부근,34.2100556,125.4664806
238,화원 부근,증도리 북측,34.6302528,126.2804278
239,거차수도 부근,동거차 상송도,34.2454167,125.9304194
240,독거군도 부근,독거 동쪽 선창,34.2537306,126.1824694
241,추자군도,신대산전망터 앞,33.9536972,126.3415222
242,낭도 부근,낭도산 동측,34.6133889,127.5659028
243,황제도,황제도 등대 밑,34.1929611,127.0808889
244,손죽열도 부근,잔거리 서측,34.2954444,127.3712111
245,대삼부도,덜섬 끝바리 부근,34.0540417,127.3847639
246,가거도,녹섬 갯바위,34.0469444,125.1227778
247,가거도,신여,34.1141667,125.0922222
248,울릉도,삼선암 갯바위,37.5491667,130.9083333
249,진해항 부근,합포마을 남측,35.0973722,128.6961667
250,대청도·소청도, 대청도 독바위,37.8047222,124.7022222
251,덕적도·소야도, 덕적도 정자바위,37.2316667,126.1652778
252,비금도·도초도, 비금도 큰당두리 갯바위,34.79,126
253,청산도·대모도,청산도 장기미 해변길 갯바위,34.1558333,126.9
254,제주도 남동부,쇠소깍 해수욕장 우측 갯바위,33.2502778,126.6263889
255,낭도 부근,낭도 해안,34.6011583,127.5507694
256,황제도,소마도,34.2039167,127.1523278
257,남해도 동부·신수도·창선도,모상개 돌섬,34.8433333,128.0777778
258,연화도 부근,목섬 갯바위,34.6636417,128.3430972
259,십이동파도·비안도,비안도 남쪽 직벽지대,35.7286111,126.4522222
260,대삼부도,쌍굴 근처 갯바위,34.0554722,127.3980028
261,연도,철탑밑 갯바위,34.4611389,127.8045556
262,연도,소룡단 갯바위,34.4084111,127.8058333
263,가의도,서측 끝단 갯바위,36.6719444,126.0480556
264,개야도,발전소 아래 갯바위,36.0327778,126.5519444
265,개야도,에게이 등대 남측 갯바위,36.0358333,126.5136111
266,개야도,장골 갯바위,36.0425,126.5433333
267,안마도·석만도,쌀썩은여 좌측부근 갯바위,35.3347222,126.0305556
268,노화도·보길도·소안도,보길도 장항각 부근 갯바위,34.1522222,126.5797222
269,신지도,도트럼끝 부근,34.3097222,126.8722222
270,청산도·대모도,침몰선 갯바위 포인트,34.1516667,126.8561111
271,여서도·거문도,거문도 녹산곶 등대 부근,34.0630556,127.2922222
272,나로도,내나로도 덕흥해수욕장 갯바위,34.5233333,127.4669444
273,나로도,외나로도 부채바위,34.4155556,127.5011111
274,제주도 서부·차귀도·비양도,비양도 코끼리바위 부근 갯바위,33.4086111,126.2222222
275,제주도 북동부·우도,비양도 등대부근,33.5149722,126.9716389
276,제주도 동부,표선해비치해수욕장 좌측 갯바위,33.3319444,126.8475
277,제주도 남부,중문단지 축구장 밑 갯바위,33.2333333,126.4325
278,제주도 남서부·가파도·마라도,송악산 올레길 갯바위,33.2027778,126.2925
279,홍도,방구서 우측 부근,34.6747861,125.196525
280,홍도,단오도 우측,34.6868167,125.1810833
281,만재도,방군여 좌측,34.2017611,125.4913056
282,화원 부근,"닭섬
(*화원 마리나 포인트)",34.6760833,126.2510972
283,거차수도 부근,동거차 해수욕장,34.2326083,125.9338139
284,추자군도,횡간도 우측 끝,34.0039694,126.3480833
285,강진만 부근,복도 갯바위,34.4505278,126.7508917
286,강진만 부근,가우도 북측 갯바위,34.5370583,126.7787417
287,득량만 부근,남생리 부근,34.5041667,127.119
288,거금수도 부근,성두도 남측,34.5113083,127.4251444
289,낭도 부근,낭도 해안가 옆,34.6023028,127.55755
290,낭도 부근,사도 해안길,34.5898333,127.5585806
291,여수엑스포 부근,검은모래해변 부근,34.78075,127.7488444
292,황제도,황제도 남단,34.1877472,127.0754444
293,손죽열도 부근,손죽 해수욕장,34.287875,127.3541444
294,간수제도,소평도 남서측,34.2565694,127.4490861
295,대삼부도,절밑 갯바위,34.0595056,127.3879556
296,송이도,큰내기 우측 갯바위,35.295,126.14
297,임자도·사옥도,임자도 남동측,35.055936,126.06274
298,안좌도·팔금도,사근마을 곶부리,34.7869444,126.0875
299,우이도,큰밭 갯바위,34.5966667,125.8113889
300,장산도,차돌이,34.6613889,126.1883333
301,진도 남서부,백미도 부근 갯바위,34.3591667,126.1316667
302,상조도·하조도·관매도,하조도 물치끝(낚시배 이용),34.2919444,126.0158333
303,가거도,노랑섭날 갯바위,34.0730556,125.0880556
304,가거도,대국흘도 갯바위,34.1172222,125.0827778
305,완도,칠암각 갯바위,34.3269444,126.6430556
306,금당도,육산리 해변,34.4283333,127.0363889
307,초도,내항도,34.2230556,127.2244444
308,남해도 동부·신수도·창선도,신수도 남쪽 갯바위(구 초소),34.8891667,128.0802778
309,두미도,용머리,34.6869444,128.1947222
310,울릉도,코끼리바위 갯바위,37.54,130.8469444
311,가의도,북측 끝단 갯바위,36.6919444,126.0825
312,청산도·대모도, 대모도 북곧말 갯바위,34.2105556,126.7638889
313,제주도 북서부,라마다호텔 앞 해안도로 좌측,33.5191667,126.5172222
314,제주도 남부,황우리해안 갯바위,33.2380556,126.5480556
315,홍도,도달바위 인근,34.6883639,125.183425
316,만재도,외마도 상단,34.2125,125.4628333
317,독거군도 부근,죽항 담추서,34.2575722,126.1155417
318,득량만 부근,득량도 좌측,34.5965361,127.091275
319,낭도 부근,해안길 우측,34.5960278,127.5411778
320,순천만 부근,궁항갯바위 부근,34.7752667,127.5611806
321,홍도,기둥바위 인근,34.6745722,125.1813
322,홍도,모도 우측 섬 부근,34.7182944,125.2034111
323,홍도,공작새바위 상단,34.6991389,125.2125
324,만재도,국도 상단,34.2073528,125.4894361
325,만재도,녹섬 우측,34.2032111,125.4771
326,입파도·국화도, 입파도 북서측 끝단,37.1141667,126.535
327,입파도·국화도, 입파도 남측 곶부리,37.0936111,126.5377778
328,풍도·난지도, 대난지도 해수욕장 갯바위,37.0497222,126.4211111
329,풍도·난지도,소난지도 서쪽 갯바위,37.0380556,126.4411111
330,원산도·삽시도,삽시도 거멀너머해수욕장 부근,36.3491667,126.3511111
331,호도·녹도·외연도, 녹도 동두말 부근,36.2652778,126.2652778
332,어청도·연도, 어청도 농배,36.1197222,125.9858333
333,어청도·연도, 어청도 시목서 부근,36.1102778,125.9783333
334,십이동파도·비안도, 십이동파도 벌린여,35.9827778,126.2369444
335,십이동파도·비안도,비안도 북서쪽 떨어진여 부근,35.74,126.4394444
336,선유도·무녀도·장자도·신시도, 선유도해수욕장 앞 갯바위,35.8205556,126.4066667
337,왕등도·위도, 상왕등도 북쪽 끝바리,35.6666667,126.1105556
338,왕등도·위도, 상왕등도 터널바위,35.6561111,126.1072222
339,왕등도·위도,위도 철탑 부근,35.5772222,126.2533333
340,왕등도·위도,위도 미영금해수욕장 갯바위,35.5886111,126.2597222
341,비금도·도초도, 비금도 명사십리해수욕장 갯바위,34.7886111,125.9527778
342,비금도·도초도,비금도 가산리 진골 갯바위,34.7733333,125.9988889
343,흑산도·삼태도, 대흑산도 정촌리 홈통 부근,34.6713889,125.4391667
344,금오도·안도, 금오도 매봉산 직벽,34.5036111,127.7347222
345,사량도, 상사량도 염소자리,34.8266667,128.1894444
346,사량도, 상사량도 돈지항 부근 갯바위,34.8361111,128.1783333
347,사천대교 부근,환덕리 묵곡천,35.0500694,128.0098056
348,진주만 부근,초양도 남동측,34.9247,128.0456944
349,갈도 부근,삼각여,34.5657861,128.1887972
350,연화도 부근,연화항 인근 갯바위,34.6516444,128.3511694
351,개야도,사수건 철탑 갯바위,36.0369444,126.5386111
352,노화도·보길도·소안도,소안도 농서 부근 갯바위,34.1227778,126.6380556
353,나로도, 내나로도 고막포 부근 갯바위,34.5083333,127.49
354,손죽열도 부근,소거문 북단,34.2976056,127.3965111
355,금당도,금당도 목섬 철탑밑,34.3997222,127.0605556
356,대청도·소청도, 대청도 서풍받이 끝,37.7986111,124.6827778
357,장봉도, 채석장 부근,37.5594444,126.3125
358,덕적도·소야도, 덕적도 능동자갈마당 갯바위,37.2644444,126.1027778
359,이작도·승봉도, 대이작도 유곶 부근,37.1702778,126.2491667
360,이작도·승봉도,승봉도 부채바위,37.1725,126.3033333
361,백아도·굴업도, 백아도 목가지 부근,37.075,125.9519444
362,백아도·굴업도,굴업도 해수욕장 동쪽 갯바위,37.195,125.9922222
363,추자도,하추자도 오지박 입구,33.9533333,126.3130556
364,이작도·승봉도, 대이작도 작은풀안해수욕장 정자 부근,37.1683333,126.2594444
365,말도·방축도,방축도 독립문바위,35.8463889,126.3658333
366,여서도·거문도,거문도 취곶 부근 갯바위,34.0527778,127.2758333
367,자은도,상장고지단 갯바위,34.9341667,126.0572222
368,개도·하의도·신의도,거북바위,34.6041667,126.0547222
369,원산도·삽시도,삽시도 물망터,36.3336111,126.3405556
370,진주만 부근,삼천포대교 밑 갯바위,34.9256944,128.0495889
371,갈도 부근,똥여,34.5621639,128.1876639
372,자월도, 떡바위,37.2627778,126.3352778
373,덕적도·소야도,소야도 대금두(진대끝) 부근,37.2080556,126.1938889
374,백아도·굴업도, 백아도 서쪽 곶부리,37.0811111,125.9413889
375,노화도·보길도·소안도,소안도 산호도 부근 갯바위,34.1869444,126.635
376,거금도, 공고지 갯바위,34.4225,127.1433333
377,여서도·거문도, 거문도 코바위,34.06,127.2797222
378,나로도,외나로도 창포골 갯바위,34.4711111,127.5063889
379,제주도 서부·차귀도·비양도,차귀도 등측 갯바위,33.3113889,126.1533333
380,제주도 북부,김녕 목지코지 갯바위,33.5636111,126.7308333
381,제주도 북동부·우도,동등 갯바위,33.5327778,126.8513889
382,제주도 북동부·우도,우두곶 우측 갯바위,33.4905556,126.9611111
383,제주도 동부,방두곶 흰등대앞 갯바위,33.4269444,126.9347222
384,제주도 남동부,태흥리 갯바위,33.2780556,126.7311111
385,제주도 남서부·가파도·마라도,송악산 낚시터,33.2141667,126.2955556
386,홍도,상금리굴 인근,34.6725639,125.1873611
387,순천만 부근,신작 부근,34.7358333,127.3766667
388,순천만 부근,대운두도 부근,34.7482028,127.5592389
389,여수엑스포 부근,혈서 상단,34.6859389,127.7922583
390,여수엑스포 부근,오천동해수욕장,34.7936389,127.7573639
391,황제도,땅콩여 동측,34.1894194,127.0826111
392,황제도,장도 서측,34.2052778,127.1535361
393,황제도,장도 동측,34.2078556,127.1772056
394,손죽열도 부근,반초섬 맞은편,34.2933722,127.3634722
395,손죽열도 부근,손죽 등대 밑,34.2955056,127.351175
396,손죽열도 부근,잔거리 홈통,34.2956361,127.3804056
397,손죽열도 부근,소거문 서측 인근,34.2874556,127.3876556
398,손죽열도 부근,소거문 서코지,34.2782222,127.3905833
399,간수제도,소평도 남측,34.256725,127.4505361
400,간수제도,평도 우측 넓은 자리,34.246825,127.4551917
401,간수제도,광도 서측 홈통,34.2645167,127.5283056
402,간수제도,광도 남측,34.2607222,127.5304972
403,대삼부도,구멍섬 갯바위,34.0556333,127.3970278
404,송이도,큰매리 갯바위,35.3,126.1411111
405,송이도,이미 앞바다,35.2777778,126.1419444
406,임자도·사옥도,옥섬,35.0530556,126.0766667
407,임자도·사옥도,외교도 등대포인트,35.0375,126.1258333
408,임자도·사옥도,증도대교 북단,35.0258333,126.1686111
409,고이도·매화도·선도·증도,소정섬 포인트,34.9269444,126.2758333
410,고이도·매화도·선도·증도,부사도 갯바위,35.0061111,126.2466667
411,고이도·매화도·선도·증도,오산항,34.9975,126.1211111
412,압해도,복용리해안 철탑 밑,34.8983333,126.35
413,우이도,성촌,34.6222222,125.8091667
414,우이도,딴목섬 갯바위,34.6055556,125.8619444
415,장산도,발막금,34.6722222,126.155
416,개도·하의도·신의도,개도 서측 갯바위,34.6405556,126.0019444
417,사량도,하사량도 레이더기지 부근 갯바위,34.795,128.2411111
418,미륵도,수암말(에름바우) 부근,34.7966667,128.3641667
419,비진도·매물도, 비진도 상투바위,34.7083333,128.4672222
420,거제도 남부, 오포 흑산태,34.7061111,128.6161111
421,거제도 남부,오지막 해안 끝바리,34.7566667,128.6438889
422,거제도 남부,구조라해수욕장 호안로 갯바위,34.8030556,128.6919444
423,연평도,시노도 갯바위,37.6130556,125.7258333
424,연평도,구지도 북측 갯바위,37.6394444,125.6827778
425,시도,조각공원 동측 갯바위,37.5261111,126.4077778
426,시도,신도 동측 끝단 갯바위,37.5344444,126.4725
427,시도,신도 남측 끝단 갯바위,37.5111111,126.4666667
428,영종도·용유도,왕산 갯바위,37.4572222,126.3613889
429,영종도·용유도,을왕리 갯바위,37.4438889,126.365
430,거잠포선착장,영종도 남측,37.421285,126.425725
431,안면도 북부,방포해변 북측 갯바위,36.5091667,126.325
432,안면도 남 부,샛별 해수욕장 남측 갯바위,36.4430556,126.3336111
433,안면도 남 부,사도 갯바위,36.4638889,126.4347222
434,가의도,북측 갯바위,36.6886111,126.0802778
435,가의도,코끼리 바위,36.6825,126.0894444
436,개야도,죽도 동측 갯바위,36.0358333,126.5308333
437,개야도,장골 북측 갯바위,36.045,126.5441667
438,안마도·석만도,우물밑 좌측 갯바위,35.3705556,126.0411111
439,송이도,양골앞 갯바위,35.2886111,126.1516667
440,흑산도·삼태도,상태도 마을 앞 갯바위,34.435,125.2813889
441,노화도·보길도·소안도, 노화도 북쪽 목부분 홈통,34.2338889,126.5605556
442,노화도·보길도·소안도, 노화도 갈미각 부근 갯바위,34.2127778,126.5555556
443,노화도·보길도·소안도, 보길도 망월각 갯바위,34.1391667,126.5044444
444,노화도·보길도·소안도, 소안도 청변각 갯바위(코바위),34.1813889,126.6841667
445,노화도·보길도·소안도,소안도 밖고래여 부근,34.1483333,126.6825
446,만재도,보건소 하단 부근,34.2065889,125.4693194
447,만재도,내마도 하단 부근,34.20615,125.465525
448,목포 부근,우도,34.8606167,126.3866361
449,목포 부근,금호바닷가펜션 부근,34.6969417,126.3635306
450,화원 부근,고도,34.6684639,126.2528056
451,화원 부근,월낭산 서측,34.6315278,126.2931028
452,거차수도 부근,서거차 북쪽 홈통,34.26,125.9178611
453,거차수도 부근,상어여 갯바위,34.2441667,125.9231333
454,거차수도 부근,동거차 망도,34.2447167,125.9541389
455,거차수도 부근,맹골 돔바위,34.2170889,125.8466361
456,독거군도 부근,슬도 북단,34.2662333,126.1503889
457,독거군도 부근,변도,34.2672083,126.16825
458,독거군도 부근,초도,34.2276444,126.1642472
459,추자군도,추자대교,33.9529444,126.3037667
460,추자군도,석죽머리 부근,33.9352333,126.3282333
461,고흥호 부근,고흥만방조제,34.6535361,127.2241306
462,거금수도 부근,소염도,34.4354444,127.329025
463,거금수도 부근,까치목골 앞,34.5052444,127.3876889
464,거금수도 부근,대바래섬 북측,34.3791972,127.2743722
465,낭도 부근,둔병도 남측,34.6232806,127.5406111
466,낭도 부근,낭도 철탑 밑,34.6026528,127.5257611
467,낭도 부근,추도 남측,34.5906222,127.5710472
468,상조도·하조도·관매도,형제도 앞,34.2247222,126.0569444
469,가거도,간서 갯바위,34.0630556,125.095
470,가거도,칼바위,34.0961111,125.0977778
471,가거도,장개다랑 갯바위,34.0916667,125.1113889
472,가거도,거북바위,34.0505556,125.1394444
473,가거도,큰납닥여,34.0477778,125.1355556
474,금일도·생일도,금곡 해수욕장 남측 갯바위,34.3038889,126.9680556
475,초도,수리망태,34.2516667,127.2563889
476,초도,오밖끝,34.2305556,127.2605556
477,초도,넙데기,34.2127778,127.2366667
478,가사도,채석장 갯바위,34.4941667,126.0477778
479,상조도·하조도·관매도,상조도 북측 철탑 아래,34.3425,126.0263889
480,상조도·하조도·관매도,조도대교 남단,34.3188889,126.0388889
481,추자군도,검둥여,33.9753361,126.3155944
482,해남반도 부근,대성식품 길 끝,34.3581472,126.4992194
483,완도 부근,연초도 갯바위,34.3386806,126.6176556
484,완도 부근,고마도 북측 해안,34.4180139,126.7110833
485,완도 부근,사후도 동측 갯바위,34.3992306,126.7450806
486,강진만 부근,만덕호 갈대밭,34.5696806,126.7590944
487,강진만 부근,만덕호 우측,34.567575,126.7640583
488,덕적도·소야도, 덕적도 소재해변 갯바위,37.2616667,126.1102778
489,덕적도·소야도,소야도 남서쪽 갯바위,37.2005556,126.1791667
490,이작도·승봉도,승봉도 소각장 부근,37.175,126.2938889
491,문갑도·선갑도, 문갑도 한월리해수욕장 갯바위,37.1819444,126.1047222
492,영흥도·선재도·대부도·구봉도, 영흥도 십리포해수욕장 갯바위,37.2830556,126.4888889
493,제부도, 제부도 매(삼형제)바위 부근,37.1563889,126.6180556
494,십이동파도·비안도, 십이동파도 큰 쌍섬,35.9933333,126.235
495,왕등도·위도, 하왕등도 북쪽 갯바위,35.6447222,126.115
496,비금도·도초도, 비금도 하누넘해수욕장 갯바위,34.7477778,125.8925
497,비금도·도초도,도초도 문바위 부근,34.6863889,125.9144444
498,거제도 북동부, 흥남해수욕장 몽돌밭,34.9586111,128.7152778
499,가의도,남측 해변 동측 갯바위,36.6677778,126.0544444
500,개야도,죽도 북측 등대 부근 갯바위,36.0413889,126.5286111
501,청산도·대모도,청산도 동촌리 갯바위,34.18,126.9236111
502,나로도,외나로도 노랑바위,34.4119444,127.4913889
503,제주도 북동부·우도,하도해수욕장 우측 갯바위,33.5105556,126.905
504,제주도 북동부·우도,세배코지 갯바위,33.5227778,126.9483333
505,독거군도 부근,슬도 선창 갯바위,34.2597583,126.1557194
506,추자군도,모정의 쉼터 부근,33.9462472,126.3409472
507,추자군도,횡간도 좌측 끝,34.0106111,126.3298278
508,거금수도 부근,시산도 북측,34.41635,127.2414889
509,손죽열도 부근,잔거리 넓은 자리,34.2946139,127.3738639
510,손죽열도 부근,소거문 계단,34.296075,127.3993639
511,대삼부도,남측 직벽,34.0576667,127.3916194
512,고이도·매화도·선도·증도,검산항,34.9933333,126.1069444
513,고이도·매화도·선도·증도,염산 선창,34.9966667,126.1811111
514,연도,대룡단 갯바위,34.409625,127.7986944
515,연도,연도 대바위,34.412825,127.7888194
516,연도,역포 서측 갯바위,34.4535833,127.7941194
517,사천대교 부근,조도마을 앞,35.0347083,127.9980306
518,사천대교 부근,화곡관광농원 앞,35.0231139,128.0348861
519,사천대교 부근,금문들 앞,35.0084278,128.0427333
520,상족암,상족암 선착장,34.904555,128.14775
521,추도 부근,오리바위 끝,34.7557944,128.3085222
522,추도 부근,돌 무너진 자리,34.7590194,128.2861833
523,추도 부근,연등 끝,34.7630222,128.2942611
524,연화도 부근,막끝 갯바위,34.6453444,128.3765278
525,연화도 부근,아랫마을 갯바위,34.65785,128.3414944
526,연화도 부근,반하도 갯바위,34.6542528,128.3532167
527,갈도 부근,미끄럼바위 근처,34.5585,128.1814361
528,갈도 부근,너부렁여 근처,34.5588667,128.1773083
529,제주도 남서부·가파도·마라도,냇골챙이 정자 아래 갯바위,33.1647222,126.2686111
530,연도,연도 산태바위,34.4249306,127.8094944
531,연도,덕포 갯바위,34.4168917,127.7965278
532,진주만 부근,상족암 유람선 갯바위,34.9043611,128.1496389
533,추도 부근,용두암 중앙,34.7557889,128.286575
534,연화도 부근,진강정 갯바위,34.6390389,128.3561806
535,덕적도·소야도, 덕적도 목섬 부근,37.2422222,126.1444444
536,영흥도·선재도·대부도·구봉도, 영흥도 양로봉 갯바위(신노루),37.2633333,126.4297222
537,원산도·삽시도, 원산도해수욕장 서측 갯바위,36.3630556,126.4202778
538,사량도,하사량도 은포마을 갯바위,34.8080556,128.2166667
539,욕지도,삼여(뽕나무강정) 부근 갯바위,34.6211111,128.2561111
540,거제도 남부, 여차항 몽돌해수욕장 갯바위,34.7136111,128.6247222
541,노화도·보길도·소안도,소안도 비자리 해안갯바위,34.175,126.6622222
542,남해도 동부·신수도·창선도,신수도 남쪽 갯바위,34.8861111,128.0736111
543,남해도 남부,가천 갯바위(다랭이마을),34.7258333,127.8991667
544,두미도,고래등,34.7025,128.1683333
545,두미도,염소자리,34.6969444,128.1727778
546,한산도·용초도,"용두단
",34.7347222,128.4820222
547,울릉도,북저바위 갯바위,37.5013889,130.92
548,추자도,상추자도 다무레미 앞 갯바위,33.9672222,126.2847222
549,추자도,상추자도 목개 해안,33.9616667,126.2855556
550,제주도 서부·차귀도·비양도,수월봉 갯바위,33.2955556,126.1622222
551,진해항 부근,초리도 서측,35.0756139,128.6876333
552,상조도·하조도·관매도,각흘도 갯바위(낚시배),34.2569444,126.0538889
553,남해도 북부,수원늘 등대,34.9466667,127.8908333
554,남해도 남부,유구마을 해안 갯바위,34.7491667,127.8377778
555,울릉도,관음도 갯바위,37.5430556,130.9194444
556,추자도,추자대교 아래,33.9530556,126.3038889
557,연화도 부근,진등끝 갯바위,34.6405833,128.3811944
558,연화도 부근,연화항 서측 끝,34.6498139,128.3447222
559,갈도 부근,매여,34.5569083,128.1827611
560,욕지도, 모개도 부근 갯바위,34.6461111,128.2647222
561,욕지도, 노적마을 쇠고락 갯바위,34.6219444,128.2877778
562,비진도·매물도, 비진도 비둘기강정 부근 갯바위,34.7233333,128.4669444
563,비진도·매물도,대매물도 수리바위,34.6336111,128.5705556
564,거제도 남부, 대포 계단바위,34.7069444,128.5755556
565,거제도 남부,망치마을 곶부리,34.8055556,128.6686111
566,시도,수기해변 동측 갯바위,37.5458333,126.4377778
567,영종도·용유도,선녀바위,37.4355556,126.3811111
568,대삼부도,북쪽 끝바리,34.0629722,127.3865028
569,연도,검등서 갯바위,34.4600861,127.7936944
570,연도,배미말 갯바위,34.4511778,127.816875
571,입파도·국화도,국화도 서쪽 곶부리,37.0580556,126.5511111
572,나로도, 내나로도 등대 밑 갯바위,34.4744444,127.5066667
573,독거군도 부근,죽항 송도,34.2682944,126.09225
574,광양만 부근,배알도해수욕장 부근,34.9596056,127.7577722
575,사천대교 부근,법도 맞은편,35.0195639,128.0378444
576,장봉도, 진촌 서갯바위,37.5455556,126.3211111
577,욕지도, 목가동섬,34.6522222,128.2425
578,비진도·매물도, 비진도 동북쪽 곶부리,34.7313889,128.4694444
579,개야도,작은여 등대 갯바위,36.0261111,126.5583333
580,안마도·석만도,노랑여(옛멸터) 부근,35.3466667,126.0413889
581,안면도 남 부,망재 곶부리,36.4391667,126.3361111
582,가의도,동남측 두번째 곶부리,36.6702778,126.0744444
583,개야도,죽도 서측 갯바위,36.0355556,126.5225
584,개야도,안청강여 등대 갯바위,36.0525,126.5419444
585,안마도·석만도,쎄지기 앞 갯바위,35.3725,126.0575
586,안마도·석만도,철탑 밑 갯바위,35.3597222,126.03
587,흑산도·삼태도,하태도 기둥바위 부근,34.3925,125.2897222
588,노화도·보길도·소안도, 보길도 글쓴바위 부근,34.1569444,126.6244444
589,노화도·보길도·소안도,보길도 보옥리 몽돌해안,34.1261111,126.5194444
590,신지도, 내동리 양식장 부근 갯바위,34.3061111,126.8547222
591,청산도·대모도, 청산도 황산말 철탑 부근,34.2002778,126.86
592,청산도·대모도,청산도 코바위,34.1536111,126.9138889
593,여서도·거문도, 여서도 등대 부근 갯바위,33.9886111,126.9152778
594,여서도·거문도,거문도 선바위 부근,34.0069444,127.3211111
595,금오도·안도, 금오도 송고마을 갯바위,34.5491667,127.725
596,제주도 서부·차귀도·비양도,6.수월약수터 앞 갯바위,33.3008333,126.1666667
597,거금도,선촌항 부근 갯바위,34.4752778,127.1083333
598,독거군도 부근,구도 북단,34.2638,126.1728667
599,해남반도 부근,송평 해수욕장 죽도,34.4270528,126.4628806
600,낭도 부근,상화도 북측,34.60405,127.6069083
601,가거도,빈지박 갯바위,34.0872222,125.1230556
602,입파도·국화도, 국화도 매박섬(토끼섬),37.0713889,126.5541667
603,호도·녹도·외연도, 녹도 북서쪽 갯바위,36.2761111,126.2622222
604,어청도·연도,연도 해녀막(멸치막),36.0758333,126.4444444
605,십이동파도·비안도, 십이동파도 사자섬,35.9969444,126.24
606,말도·방축도, 말도 북동쪽 곶부리,35.8586111,126.3255556
607,왕등도·위도, 하왕등도 오지바위,35.6344444,126.1241667
608,비금도·도초도, 비금도 성목골 부근 갯바위,34.7366667,125.8894444
609,비금도·도초도, 비금도 통섭바위 부근,34.8063889,125.9936111
610,사량도, 상사량도 돈지마을 남쪽 곶부리,34.8313889,128.1797222
611,사량도,하사량도 모자섬 부근,34.8197222,128.2002778
612,개도·하의도·신의도,버러기미,34.555,126.1025
613,가사도,가사도 북측 갯바위,34.4980556,126.0544444
614,상조도·하조도·관매도,옥도 북측 갯바위,34.3602778,126.0147222
615,가거도,멍신여,34.0947222,125.1036111
616,금당도,비견도엿도,34.4061111,127.0844444
617,금일도·생일도,신구리 철탑 앞,34.3388889,127.0177778
618,초도,솔거섬,34.2125,127.2611111
619,돌산도,향일암 갯바위,34.5966667,127.8075
620,두미도,번자리,34.7066667,128.1683333
621,한산도·용초도,"용초도 철탑 동측 갯바위 
",34.735,128.5141667
622,제주도 서부·차귀도·비양도,무릉리 해안도로 갯바위,33.2569444,126.1861111
623,흑산도·삼태도, 대흑산도 예리 갯바위,34.6905556,125.4483333
624,거제도 남부, 근포마을 곶부리,34.7227778,128.5847222
625,제주도 동부,여마진개 갯바위,33.3980556,126.9072222
626,홍도,홍어굴 하단,34.6850278,125.2061111
627,목포 부근,지중해 카페 북측,34.8435556,126.4002194
628,추자군도,최영장군 사당 앞,33.9659,126.2944167
629,해남반도 부근,소죽리 죽도,34.3432972,126.5137778
630,고흥호 부근,우도 상단,34.7269722,127.3078806
631,거금수도 부근,지죽도 남서측,34.4334444,127.3028639
632,여수엑스포 부근,장도 인근 다리,34.7467944,127.6652278
633,제주도 서부·차귀도·비양도,영락리 큰산물 낚시터,33.2505556,126.1952778
634,간수제도,소평도 계단,34.2583194,127.452
635,미륵도, 진송말 부근 갯바위,34.8261111,128.4408333
636,연도,모경말 갯바위,34.4594778,127.8076528
637,갈도 부근,매여 앞 갯바위,34.5588056,128.1833194
638,홍도,모도 좌측부근,34.7201306,125.1966139
639,거금수도 부근,남성리 해수욕장,34.5195222,127.4097222
640,제주도 남서부·가파도·마라도,옹짓물 정자 아래 갯바위,33.1702778,126.2788889
641,거차수도 부근,죽도 등대 부근,34.2255056,125.8492278
642,추자군도,청석 갯바위,33.9642833,126.2837
643,낭도 부근,하과도 서측,34.6245556,127.5335
644,임자도·사옥도,딴섬 부근,35.0477778,126.0952778
645,장산도,소류지,34.6144444,126.1269444
646,추자도,상추자도 청석 갯바위,33.9638889,126.2852778
647,영흥도·선재도·대부도·구봉도, 영흥도 용담리해수욕장 부근,37.2416667,126.4811111
648,안마도·석만도,논골 끝 갯바위,35.3638889,126.0208333
649,거금수도 부근,두리도 남측,34.5111861,127.4138417
650,연도,만작굴,34.4171917,127.8080333
651,연화도 부근,촛대바위 인근,34.6457222,128.3431167
652,대청도·소청도,소청도 예동 갯바위,37.7688889,124.7488889
653,이작도·승봉도,승봉도 참나무골,37.1652778,126.3180556
654,이작도·승봉도,승봉도 철탑앞 갯바위,37.1647222,126.2947222
655,비금도·도초도, 비금도 용머리바위,34.7663889,125.8913889
656,노화도·보길도·소안도,보길도 치마끝 갯바위,34.1458333,126.6038889
657,제주도 서부·차귀도·비양도,풍력발전소 앞 갯바위,33.3366667,126.1627778
658,홍도,슬픈여 부근,34.7052306,125.2145194
659,독거군도 부근,죽항 남쪽 갯바위,34.2611889,126.1101111
660,제주도 남부,서건도 갯바위,33.23,126.4975
661,제주도 남부,하예마을 서측 갯바위,33.2302778,126.3702778
662,홍도,병풍바위 좌측,34.6695806,125.1809806
663,홍도,거북바위 인근,34.6934583,125.1923861
664,홍도,홍어굴 부근,34.691375,125.20935
665,만재도,만재도 남측 해안,34.2034028,125.4690583
666,독거군도 부근,하조도 매동여,34.2775556,126.0937194
667,독거군도 부근,독거 북단,34.2626944,126.1824028
668,추자군도,목리 인근 갯바위,33.9544444,126.3128333
669,추자군도,추포도 북측 갯바위,33.9879861,126.3237694
670,해남반도 부근,소죽리 중도,34.3391389,126.5167444
671,완도 부근,만수리 남측 갯바위,34.4176972,126.6735778
672,완도 부근,내도 갯바위,34.4458167,126.7339444
673,완도 부근,고마도 동측 갯바위,34.4061472,126.7248722
674,강진만 부근,만덕호 좌측,34.5657444,126.7574667
675,강진만 부근,외호도 갯바위,34.461925,126.7902361
676,낭도 부근,신기촌들 갯바위,34.635,127.4755556
677,낭도 부근,상화도 해변가,34.6000833,127.5964472
678,여수엑스포 부근,내치도 하단,34.6941028,127.7879444
679,여수엑스포 부근,신덕해수욕장 부근,34.8140278,127.7699472
680,광양만 부근,마도 갯바위,34.9406111,127.7758333
681,황제도,장도 남동측,34.2024861,127.1659917
682,손죽열도 부근,반초섬 남측,34.29475,127.3647972
683,손죽열도 부근,잔거리 동측,34.2959167,127.3819417
684,손죽열도 부근,소거문 서코지 좌측,34.2801111,127.3879278
685,간수제도,광도 북측,34.2697889,127.5326556
686,대삼부도,덜섬 끝바리,34.0532778,127.3856444
687,임자도·사옥도,광산리 서측끝단,35.0763889,126.1230556
688,고이도·매화도·선도·증도,침해섬 포인트,34.9227778,126.2097222
689,압해도,복용리 해안,34.8991667,126.3436111
690,손죽열도 부근,손죽 서측 낮은 자리,34.2876833,127.3484389
691,임자도·사옥도,삼봉끝 등대,35.145,126.1636111
692,자은도,진서말,34.8713889,125.9688889
693,상조도·하조도·관매도,관매도 서측 곶부리,34.2305556,126.0252778
694,초도,딴작부치,34.2388889,127.2622222
695,십이동파도·비안도, 비안도 남쪽 갯바위,35.7480556,126.4480556
696,왕등도·위도, 위도 대멀 부근,35.6102778,126.315
697,가의도,남측 끝단 갯바위,36.6677778,126.0508333
698,고이도·매화도·선도·증도,고이도 서측 철탑밑,34.9633333,126.2877778
699,고이도·매화도·선도·증도,해저유물 포인트,35,126.0975
700,금일도·생일도,생일도 헬기장 앞,34.3244444,127.0158333
701,십이동파도·비안도,비안도 남서쪽 직벽 홈통,35.7302778,126.4494444
702,독거군도 부근,죽항 북쪽 철탑 밑,34.2707694,126.0964278
703,노화도·보길도·소안도,소안도 담축끝 갯바위,34.1202778,126.6694444
704,흑산도·삼태도, 대흑산도 섯개해수욕장 갯바위,34.6605556,125.4238889
705,가의도,북측 해변 옆 갯바위,36.69,126.0863889
706,만재도,치안센터 하단 부근,34.2049778,125.4743639
707,완도 부근,사후도 북측 갯바위,34.4015028,126.732725
708,임자도·사옥도,대중끝,35.0519444,126.085
709,우이도,달밭밑,34.6280556,125.8563889
710,가사도,작은모래땅 갯바위,34.4838889,126.0325
711,왕등도·위도,위도 논금해수욕장 갯바위,35.5808333,126.2513889
712,손죽열도 부근,손죽 해안,34.2917389,127.3545
713,욕지도, 통곶지비 부근 갯바위,34.6391667,128.2986111
714,연화도 부근,네바위 사이 골창,34.6348,128.3768083
715,신지도, 방죽포 철탑 부근 갯바위,34.3441667,126.8961111
716,금일도·생일도,용황리 해안,34.3536111,127.0825
717,상조도·하조도·관매도,명지마을 해안도로,34.3122222,126.0269444
718,한산도·용초도,"호두마을 뒤등 
",34.7322222,128.5044444
719,문갑도·선갑도, 문갑도 진뿌리,37.1655556,126.1091667
720,안마도·석만도,우물밑 우측 갯바위,35.3752778,126.0536111
721,갈도 부근,욕지끝바리,34.5724,128.1886056
722,안마도·석만도,문 끝 갯바위,35.3316667,126.0138889
723,여서도·거문도,거문도 칼바위,34.055,127.3255556
724,제주도 북동부·우도,우두곶 갯바위,33.4891667,126.9638889
725,홍도,방구서 좌측 부근,34.6736389,125.1926194
726,홍도,탑섬 인근,34.7069194,125.2010667
727,홍도,노적봉 하단,34.6806389,125.2024194
728,목포 부근,가란도,34.8667833,126.3575472
729,목포 부근,장감길 끝,34.8182417,126.3338389
730,추자군도,새말 갯바위,33.9615,126.2858111
731,거금수도 부근,남촌휴양지 남측,34.5164889,127.2385389
732,황제도,철탑,34.1907389,127.0698083
733,자월도, 입암두 부근 갯바위,37.2627778,126.3163889
734,호도·녹도·외연도,외연도 작은 명금 부근,36.2311111,126.0822222
735,사량도,하사량도 동포 해안도로 제방,34.835,128.2416667
736,거제도 남부,함목해수욕장 갯바위,34.7344444,128.6513889
737,안면도 북부,연륙교,36.5988889,126.3233333
738,청산도·대모도, 청산도 촛대바위 부근,34.2088889,126.8725
739,고흥호 부근,득량만방조제,34.7412528,127.2126389
740,여수엑스포 부근,노도 인근,34.7099222,127.7426667
741,금당도,신흥리제방수문,34.4297222,127.0513889
742,백아도·굴업도,굴업도 마을 서쪽 갯바위,37.1869444,125.975
743,안면도 남 부,추도 갯바위,36.405,126.4361111
744,비진도·매물도,매물도 대항 선창,34.6402778,128.5688889
745,사천대교 부근,덕진포교,35.0446306,128.0040083
746,안마도·석만도,근여 부근 갯바위,35.3566944,125.9958333
747,영흥도·선재도·대부도·구봉도, 영흥도 비석바위,37.2741667,126.4352778
748,석모도,섬돌모루,37.7083333,126.3255556
749,순천만 부근,달천도 부근,34.7705528,127.5591556
750,남해도 남부,가천 갯바위(레이다기지),34.7241667,127.8775
751,개야도,치도 남측 갯바위,36.0341667,126.5225
752,화원 부근,우도,34.6534694,126.2525833
753,무의도,실미도해변 갯바위,37.4008333,126.3938889
754,홍도,탑서 우측,34.7242667,125.2007333
755,추도 부근,높은여,34.7610139,128.2970639
756,거금도,배천마을 곶부리,34.4705556,127.0930556
757,제주도 남서부·가파도·마라도,발전소 앞 갯바위,33.2361111,126.3444444
758,이작도·승봉도,승봉도 남대문바위,37.1716667,126.3119444
759,금오도·안도,금오도 야외음악당 부근,34.5316667,127.7086111
760,무의도,때무리 동측 갯바위,37.3744444,126.4427778
761,노화도·보길도·소안도,보길도 선창리 갯바위,34.1483333,126.5041667
762,제주도 북동부·우도,독진곶 갯바위,33.5172222,126.9619444
763,청산도·대모도, 대모도 마도말 갯바위,34.1877778,126.7502778
764,십이동파도·비안도, 십이동파도 병풍도 북쪽 곶부리,35.9977778,126.2194444
765,추자군도,다무래미 갯바위,33.9686111,126.2844722
766,완도 부근,사후도 남측 갯바위,34.3905194,126.7427778
767,여서도·거문도,거문도 대매지끝(용무늬 절벽),34.015,127.2947222
768,제주도 남부,세별곶,33.2319444,126.4616667
769,독거군도 부근,슬도 북쪽 넓은자리,34.2657028,126.1438639
770,고이도·매화도·선도·증도,고이도 남측 철탑 밑,34.9380556,126.3002778
771,홍도,상연서 상단,34.6742917,125.1747972
772,상조도·하조도·관매도,신의도 갯바위,34.2330556,126.0727778
773,대청도·소청도, 대청도 검은낭 갯바위,37.8388889,124.7277778
774,고이도·매화도·선도·증도,둔벙여 갯바위,34.9208333,126.2125
775,석모도,하리낚시터 북측,37.7408333,126.2883333
776,장봉도, 채석장 북갯바위(가막머리),37.56,126.3086111
777,덕적도·소야도,소야도 떼뿌루해수욕장 갯바위,37.2094444,126.1694444
778,영흥도·선재도·대부도·구봉도, 영흥도 농어바위,37.2841667,126.4555556
779,입파도·국화도, 국화도 해수욕장 서측 갯바위,37.0638889,126.5566667
780,원산도·삽시도, 원산도해수욕장 동측 소록도,36.3605556,126.4341667
781,어청도·연도,연도 채석장,36.0788889,126.4327778
782,선유도·무녀도·장자도·신시도, 선유도 북도 동쪽 갯바위,35.8197222,126.4233333
783,미륵도, 이운항 동쪽 해안 갯바위,34.8027778,128.4413889
784,거금도, 금장 끝바리,34.4288889,127.1625
785,나로도, 외나로도 나로대교 철탑 부근,34.4758333,127.4566667
786,자월도, 큰굴 부근,37.2633333,126.2783333
787,이작도·승봉도,승봉도 촛대바위,37.1613889,126.3244444
788,백아도·굴업도, 굴업도 마을 북쪽 갯바위,37.1941667,125.9813889
789,입파도·국화도, 국화도 해수욕장 동측 갯바위,37.0616667,126.5586111
790,선유도·무녀도·장자도·신시도,신시도 남단 간출여 부근,35.8097222,126.4486111
791,말도·방축도,방축도 남서쪽 작은 홈통,35.8463889,126.3725
792,낭도 부근,하화도 해안길,34.5923917,127.6149028
793,고이도·매화도·선도·증도,삼섬 포인트,34.9613889,126.2519444
794,가사도,항로표지관리소 밑,34.4594444,126.0419444
795,노화도·보길도·소안도,보길도 예송리해수욕장 곶부리,34.145,126.5752778
796,영흥도·선재도·대부도·구봉도, 영흥도 진여,37.2872222,126.4705556
797,어청도·연도, 어청도 세미치말 부근,36.1105556,125.9913889
798,사량도, 상사량도 진촌항 수협 앞 선창,34.8433333,128.2247222
799,문갑도·선갑도, 문갑도 문갑해수욕장 갯바위,37.1769444,126.1102778
800,여서도·거문도, 거문도 산굴산 부근 갯바위,34.0483333,127.3275
801,신지도,노랑바위 부근,34.3233333,126.7861111
802,연화도 부근,구멍섬 갯바위,34.6644278,128.3391667
803,말도·방축도,방축도 남서쪽 큰 홈통,35.8461111,126.3680556
804,사량도, 상사량도 술미도,34.8588889,128.2061111
805,거금도, 주이정(주름목) 부근 갯바위,34.4741667,127.2372222
806,화원 부근,증도리회관 동측,34.6360028,126.2885306
807,순천만 부근,대여자도 하단,34.7553444,127.5045
808,칠천도·가조도,창촌마을 북쪽 끝 선창,34.9622222,128.5133333
809,금일도·생일도,도지항,34.3686111,127.0102778
810,추자도,신양리 해안 갯바위,33.935,126.3280556
811,연화도 부근,연화도 반하도 골창,34.6518167,128.3533917
812,이작도·승봉도, 소이작도 손가락 바위 부근,37.1830556,126.2491667
813,안면도 남 부,운여 해변 남측 갯바위,36.4252778,126.3513889
814,황제도,장도 홈통,34.203525,127.1568139
815,제주도 서부·차귀도·비양도,영락리 장원수산 앞 갯바위,33.2419444,126.2119444
816,자란만 부근,.솔섬 맞은편,34.9372778,128.2555556
817,대삼부도,동측 갯바위,34.0572,127.3982889
818,고이도·매화도·선도·증도,버지 선창,35.0238889,126.1247222
819,가의도,코끼리 바위 남측 갯바위,36.6805556,126.0872222
820,고흥호 부근,장재도 남측해안,34.6126028,127.0118333
821,임자도·사옥도,임자도 남서측 곶부리,35.0569444,126.0580556
822,풍도·난지도, 풍도 북동측 돌출부,37.1155556,126.39
823,가거도,대리취,34.0702778,125.0944444
824,금당도,송아지목,34.4211111,127.0338889
825,상조도·하조도·관매도,흑여(낚시배),34.3019444,126.0966667
826,비금도·도초도,도초도 지남리 남쪽 곶부리,34.6697222,125.9247222
827,노화도·보길도·소안도,소안도 탁구진 부근 갯바위,34.1405556,126.68
828,여서도·거문도,거문도 대린포 갯바위,34.0583333,127.3158333
829,두미도,물내려오는곳,34.6916667,128.1875
830,상조도·하조도·관매도,관매도 해수욕장 갯바위,34.2525,126.0486111
831,연평도,감마금뿌리,37.605,125.7063889
832,추도 부근,물선치,34.7477556,128.2926111
833,금오도·안도, 안도 칼바위,34.4844444,127.8247222
834,가거도,물등개 갯바위,34.0583333,125.1386111
835,이작도·승봉도, 승봉도 동양콘도 앞,37.1738889,126.2908333
836,신지도,동고리 남쪽 갯바위,34.3302778,126.8936111
837,제주도 북서부,라마다호텔 앞 해안도로 우측,33.5186111,126.5238889
838,덕적도·소야도, 덕적도 파락금이 갯바위,37.2577778,126.1175
839,호도·녹도·외연도, 호도 북동쪽 갯바위,36.3025,126.2691667
840,거금도, 금진리 철탑 부근 선창,34.4894444,127.1152778
841,거금수도 부근,구암리 해안길,34.4689444,127.3210139
842,자은도,남진 선창,34.8566667,126.0655556
843,상조도·하조도·관매도,상조도 서쪽 둥근바위,34.3263889,125.9955556
844,연도,동부 근처 갯바위,34.4284056,127.8053556
845,무의도,실미도북서측 갯바위,37.4025,126.3891667
846,노화도·보길도·소안도,소안도 월항리 양식장부근,34.1972222,126.6558333
847,낭도 부근,하화도 서측,34.5888111,127.6059083
848,추자군도,발전소 부근,33.9502528,126.3028389
849,여서도·거문도,거문도 송곡단 부근 갯바위,34.0347222,127.2825
850,홍도,흔들바위 상단,34.6779167,125.1926306
851,거제도 남부,서이말 갯바위 일대,34.7902778,128.7402778
852,손죽열도 부근,소거문 서측,34.2887944,127.3858861
853,금오도·안도,안도 동고지 해안갯바위,34.4969444,127.8180556
854,욕지도,고래바위 끝바리,34.6286111,128.2352778
855,비진도·매물도, 비진도 설품단 부근 갯바위,34.7091667,128.4472222
856,거제도 북동부,양지암 북바위,34.8938889,128.7505556
857,자월도, 굴뿌리,37.2597222,126.3480556
858,문갑도·선갑도, 문갑도 문턱뿌리 부근,37.1663889,126.1011111
859,입파도·국화도, 입파도 서측 갯바위,37.1022222,126.5369444
860,선유도·무녀도·장자도·신시도,무녀도 제방,35.8055556,126.44
861,신지도,무생끝 부근,34.31,126.8822222
862,백아도·굴업도,굴업도 마을 동쪽 갯바위,37.1869444,125.9816667
863,원산도·삽시도,삽시도 야의곶 부근,36.3352778,126.37
864,신지도, 대곡항 북쪽 갯바위,34.3522222,126.8241667
865,청산도·대모도, 대모도 외라이말 갯바위,34.1955556,126.7730556
866,거제도 남부,해금강 도세치 끝,34.7369444,128.6811111
867,거금도, 옥룡마을 갯바위,34.4313889,127.125
868,금오도·안도, 금오도 소유마을 갯바위,34.5313889,127.7697222
869,영흥도·선재도·대부도·구봉도, 대부도 쪽박섬 부근,37.2141667,126.5422222
870,시도,조각공원 북측 갯바위,37.5305556,126.4016667
871,안마도·석만도,우물밑 갯바위,35.3736111,126.0422222
872,임자도·사옥도,임자도 남측,35.057333,126.060321
873,암태도,익금마을 선창,34.8775,126.1086111
874,우이도,송도 북측 갯바위,34.6172222,125.8675
875,가거도,바둑바위,34.0855556,125.0955556
876,초도,파랑끝,34.2452778,127.2622222
877,대청도·소청도, 대청도 서풍받이 서쪽 갯바위,37.8016667,124.6797222
878,청산도·대모도, 대모도 소로지말 갯바위,34.1775,126.7611111
879,풍도·난지도, 풍도 채석장 북측,37.1141667,126.38
880,십이동파도·비안도, 십이동파도 작은 쌍섬,35.9936111,126.2408333
881,금오도·안도,안도 철탑 아래 갯바위,34.4716667,127.8022222
882,거제도 남부,학동 용바위,34.7686111,128.6386111
883,연평도,금능해수욕장 남측 갯바위,37.6638889,125.6833333
884,안마도·석만도,나룻방 밑 갯바위,37.4219444,126.435
885,추자군도,모진해수욕장 갯바위,33.9518972,126.3006611
886,순천만 부근,교량낚시터,34.7573167,127.506775
887,고이도·매화도·선도·증도,마산도 선창,34.9525,126.2491667
888,이작도·승봉도,승봉도 목섬 부근,37.1572222,126.3208333
889,제주도 서부·차귀도·비양도,비양도 동측 갯바위,33.4097222,126.2316667
890,제주도 북동부·우도,우도치안센터 앞,33.5230556,126.9580556
891,시도,수기해변 서측 갯바위,37.5458333,126.4272222
892,안면도 북부,황도 연륙교 아래,36.5966667,126.375
893,가의도,작은 마을 동측 안통,36.6730556,126.0713889
894,안마도·석만도,똥섬 부근 갯바위,35.3647222,126.06
895,임자도·사옥도,대두끝 갯바위,35.0513889,126.1063889
896,고이도·매화도·선도·증도,선도북측 선창,35.0066667,126.2597222
897,안좌도·팔금도,신안교 서단,34.7663889,126.1275
898,진도 북부,군내방조제,34.535,126.2333333
899,안마도·석만도,똥섬 갯바위,35.3622222,126.06
900,안마도·석만도,긴 둑 밑 갯바위,35.3397222,126.0122222
901,진도 남동부,현목항 선창,34.3794444,126.2675
902,초도,막두,34.2477778,127.2430556
903,무의도,무의도 곶부리,37.4122222,126.4080556
904,우이도,선창구미,34.6111111,125.8597222
905,목포 부근,명지식품 해안길,34.8491389,126.4047222
906,초도,석머리,34.2366667,127.2344444
907,남해도 동부·신수도·창선도,신수도 북쪽 갯바위,34.91,128.0736111
908,칠천도·가조도,계도 어촌 체험 낚시터,34.9763889,128.5133333
909,추자도,모진 해수욕장,33.9447222,126.3341667
910,상조도·하조도·관매도,하조도 매동여(낚시배),34.2752778,126.095
911,연평도,검은서,37.6413889,125.7047222
912,돌산도,계동등대 옆 갯바위,34.6602778,127.8058333
913,제주도 동부,당두곶 우측 갯바위,33.4233333,126.9319444
914,남해도 동부·신수도·창선도,모상개 해수욕장 우측 갯바위,34.8280556,128.0869444
915,우이도,가도 북측 갯바위,34.6233333,125.8641667
916,진도 남동부,접도리 선창,34.3888889,126.2836111
917,제주도 서부·차귀도·비양도,비양도 초소 밑 갯바위,33.4058333,126.2227778
918,송이도,큰내기 좌측 갯바위,35.2925,126.1386111
919,상조도·하조도·관매도,하조도 등대,34.3113889,126.0880556
920,고이도·매화도·선도·증도,왕바위,34.9547222,126.1269444
921,호도·녹도·외연도,외연도 누적금 부근,36.2308333,126.075
922,십이동파도·비안도,비안도 서쪽 돌출여 부근,35.7338889,126.4483333
923,말도·방축도, 방축도 북서바위,35.8527778,126.3675
924,비금도·도초도, 비금도 이미해수욕장 갯바위,34.7583333,125.8913889
925,한산도·용초도,"용초 뒤등 갯바위
",34.7391667,128.4666667
926,추자도,예초리 해안도로 갯바위,33.9566667,126.3363889
927,제주도 남서부·가파도·마라도,할망당 아래 갯바위,33.1219444,126.2666667
928,고이도·매화도·선도·증도,도둑섬 포인트,35.0080556,126.1011111
929,상조도·하조도·관매도,고치여 하늘다리 주변,34.2216667,126.0366667
930,제주도 남서부·가파도·마라도,사계리 체육공원 갯,33.2213889,126.2969444
931,암태도,중앙대교 북단,34.8005556,126.1183333
932,추자도,하추자도 남동측 끝단,33.93,126.3302778
933,안좌도·팔금도,신안교 동단,34.7675,126.1319444
934,시도,시모도 연륙교,37.5363889,126.4144444
935,암태도,익금해변 갯바위,34.8811111,126.1219444
936,가거도,오구멍박벌 갯바위,34.0641667,125.1113889
937,낭도 부근,해안길 좌측,34.5960694,127.5398861
938,진해항 부근,잠도 서측,35.0598944,128.6630139
939,추도 부근,용머리치 끝,34.7549056,128.2833611
940,갈도 부근,너부렁여,34.5593722,128.176375
941,홍도,수력말과종바위 인근,34.7135556,125.2119306
942,득량만 부근,정남진해양낚시공원,34.4716278,126.9784167
943,여수엑스포 부근,국동항 인근,34.7219833,127.7254278
944,화원 부근,"마리나공사장 남측
(*화원 마리나 포인트)",34.6833333,126.2578139
945,황제도,흰여,34.2164833,127.1331111
946,홍도,독립문 인근,34.7165278,125.2085583
947,연화도 부근,연화리 갯바위,34.6418028,128.3635583
948,목포 부근,꼬막섬,34.8474056,126.3043222
949,거차수도 부근,동거차 둥근섬,34.2471361,125.9357833
950,독거군도 부근,소슬도,34.2541139,126.1556861
951,거금수도 부근,추도,34.4791278,127.381975
952,낭도 부근,사도 서측,34.5925722,127.5534028
953,여수엑스포 부근,검은모래해변 부근,34.7696333,127.7506444
954,손죽열도 부근,소거문 홈통,34.2826389,127.3885
955,해남반도 부근,어란리 서측,34.3787639,126.4738111
956,완도 부근,사내방조제,34.4616389,126.7393944
957,대삼부도,똥여부근 갯바위,34.0588611,127.3957389
958,연화도 부근,대바위 인근,34.6421306,128.3444806
959,추자군도,염도 좌측,33.9742667,126.3060111
960,진주만 부근,"삼분갑 근처 갯바위
(*삼천포 마리나 포인트)",34.9588139,128.0321139
961,진해만 부근,문턱개 북측,34.8625972,128.3884
962,갈도 부근,빗바위,34.5705528,128.1893056
963,목포 부근,도시촌 길 남측,34.8149361,126.3472667
964,거금수도 부근,한옥민박 옆,34.4734222,127.2335611
965,진해항 부근,해돋이까페 부근,35.1040722,128.601225
966,자란만 부근,가오치 마을 앞,34.9090556,128.3198333
967,만재도,내마도상단,34.2105389,125.4642806
968,대삼부도,동굴 좌측,34.0612194,127.3901667
969,진해항 부근,막개도,35.137575,128.5999528
970,추자군도,섬생이 좌측,33.9392111,126.3093139
971,득량만 부근,득량도 우측,34.6024778,127.1077361
972,연화도 부근,가마동섬,34.6615389,128.3481167
973,순천만 부근,선정 부근,34.7511111,127.3894444
974,목포 부근,모삼머리들,34.8678639,126.3210528
975,추자군도,검둥여 부근,33.9759167,126.3129722
976,사진리,사진 2리 남단 영덕 무지개 폭포,36.5286389,129.4409167
977,축산항,축산 죽도산 갯바위,36.5087,129.4529444
978,석리,석리 탐조등 노물다섯짬 해안도로 갯바위1,36.4587556,129.4363278
979,석리,석리 탐조등 노물다섯짬 해안도로 갯바위2,36.4544389,129.4354361
980,금진2리,금진 2리 마을 회관 갯바위,36.3703611,129.3979972
981,남호리,남호 해수욕장 백사장,36.3276778,129.3799528
982,장사리,장사해수욕장 남동쪽 갯바위,36.2774556,129.3797222
983,부경리,부경리 갯바위1,36.2749639,129.3810972
984,부경리,부경리 갯바위2,36.2736111,129.3799806
985,삼정항,석병방파제 갯바위,36.0225,129.5799972
986,삼정3리,심정 3리 갯바위,36.0084861,129.5786944
987,구룡포항,구룡포 해수욕장 남측 갯바위1,35.9946111,129.5665139
988,구룡포항,구룡포 해수욕장 남측 갯바위2,35.9914861,129.5679472
989,구룡포항,구룡포항 서쪽 바다 낚시터,35.9895167,129.5658889
990,장길리,구룡포항 장길리 보릿돌,35.9749028,129.5529722
991,장길리,장길리 복합 낚시 공원,35.9516278,129.5511417
992,신창리,신창 간이 해수욕장,35.8903667,129.5247778
993,양포항,양포항 남쪽 갯바위,35.8719306,129.5229833
994,계원2리,계원 2리 등대 갯바위,35.8534528,129.5255278
995,척사항,척사방파제 북쪽 갯바위,35.8168639,129.5132722
996,척사항,척사방파제 남쪽 갯바위,35.8126167,129.5108611
997,감포항,감포항 송대말 등대 앞 갯바위,35.8064889,129.5117333
998,판지항,판지항 남측 갯바위,35.6122611,129.4585
999,제전항,제전항 남측 갯바위,35.6062583,129.4624722
1000,우가포,우가포갯바위,35.5924639,129.4637583
1001,당사해양낚시공원,당사해양낚시공원,35.5802222,129.458575
1002,주전몽돌해변,주전몽돌해변,35.5657917,129.4557028
1003,소바위,울산소바위,35.4862611,129.4385639
1004,슬도,울산 슬도,35.4780556,129.4312306
1005,대바위공원,대바위공원,35.3776806,129.3453583
1006,신암1리,신암1리 방파제 동측 갯바위,35.3476333,129.3320194
1007,신평소공원,신평소공원 윷판대,35.2934972,129.261
1008,온정방파제,온정방파제 동측 남사암,35.2831361,129.2599611
1009,대변항,대변항 북측 갯바위,35.2211722,129.2383889
1010,원앙대,원앙대(오랑대공원),35.2057472,129.2282722
1011,죽도,죽도갯바위(송일정),35.1788528,129.2061694
1012,망양휴게소,망양휴게소 갯바위,36.8727028,129.4216028
1013,사동항,사동항 남측 갯바위,36.8229306,129.4498611
1014,봉산리,봉산리 백사장 남측 갯바위,36.7807306,129.4696611
1015,봉산리,봉산리 주변 갯바위1,36.7758056,129.4721167
1016,봉산리,봉산리 주변 갯바위2,36.771575,129.475775
1017,봉산리,봉산리 주변 갯바위3,36.7678111,129.4786028
1018,직산리,직산리 주변 갯바위1,36.7332222,129.4761694
1019,직산리,직산리 주변 갯바위2,36.7271111,129.4774306
1020,거일리,거일리 주변 백사장,36.7186944,129.472575
1021,거일리,거일리 주변 갯바위,36.7108889,129.4756944
1022,거일리,거일리 주변 해안도로 갯바위,36.7042472,129.4747778
1023,거일리,울진 바다목장 해상낚시 공원 및 주변 갯바위,36.6994139,129.4777722
1024,거일리,거일리 남단 주변 갯바위,36.6969972,129.4731778
1025,거일리,거일리 남단 주변 백사장,36.6954333,129.4695278
1026,후포항,후포항 동쪽 갓바위,36.6795528,129.4661111
1027,금음리,금음리 주변 갯바위1,36.6580222,129.431
1028,금음리,금음리 주변 갯바위2,36.6545444,129.4303611
1029,금음리,금음리 주변 갯바위3,36.6520889,129.4292861
1030,금음리,금음리 주변 갯바위4,36.6470056,129.4259778
1031,금음리,금음 4리 주변 갯바위,36.641875,129.4223222
1032,병곡리,고래불 해수욕장 백사장,36.5979917,129.4113667
1033,대진항,대진항 북쪽 도해단 갯바위,36.5604472,129.4323222
1034,대진항,대진항 남단 갯바위1,36.5550639,129.4371556
1035,대진항,대진항 남단 갯바위2,36.5536111,129.4385194
1036,오호항,오호항주변 갯바위,38.3277778,128.5303889
1037,문암2리항,문암2리항 갯바위,38.2968583,128.5498917
1038,아야진항,아야진 방파제 갯바위,38.2745556,128.5570028
1039,아야진항,아야진항 북측 갯바위,38.2701306,128.5580833
1040,청간해변,청간해변 갯바위,38.2663889,128.5586444
1041,봉포해변,봉포해변 갯바위,38.2527667,128.5686472
1042,낙산항,낙산방파제 갯바위,38.1241444,128.6329167
1043,남애항,남애항 북측 갯바위1,37.9468889,128.7862056
1044,남애항,남애항 북측 갯바위2,37.9449056,128.7885944
1045,남애항,남애항 남측 갯바위,37.9397972,128.7890556
1046,사천진해변,사천진 바위,37.8410722,128.8776361
1047,어달리항,어달리항 남측 갯바위,37.560225,129.1206444
1048,어달리항,어달리항 북측 방조제,37.5528556,129.1195556
1049,한섬방파제,동해기도원 갯바위,37.5283722,129.1223194
1050,후진항,후진항 북측 갯바위,37.4644167,129.1770417
1051,덕산해수욕장,덕봉산 주변 갯바위,37.3885556,129.2390944
1052,대진항,대진항 내항,37.3470611,129.26125
1053,초곡항,초곡항 서측 갯바위,37.3094167,129.2910306
1054,장호항,장호항 갯바위,37.2893528,129.3179
1055,갈남항,갈남항 서측 갯바위,37.2816028,129.3233694
1056,노곡항,노곡항 남측 갯바위,37.1996306,129.3438583
1057,나곡해수욕장,나곡해수욕장 남측 갯바위,37.1255194,129.3724833
1058,나곡해수욕장,나곡바다 낚시공원,37.1176944,129.3796306
1059,석호항,석호해변 갯바위,37.1101694,129.3745472
1060,부구해수욕장,부구해수욕장 북측 갯바위,37.1058111,129.3774639
1061,후정해수욕장,후정해수욕장 갯바위,37.07,129.4174694
1062,봉수항,봉수항 북측 갯바위,37.0655,129.4243556
1063,봉수항,봉수항 남측 갯바위,37.0622611,129.4275
1064,죽변항,죽변항에서봉평해수욕장까지백사장,37.0512278,129.4146222
1065,양정항,양정항 북쪽갯바위1,37.0215278,129.411
1066,양정항,양정항 북쪽갯바위2,37.0165306,129.4130556
1067,양정항,양정항에서 대나리항까지 해안도로,37.011375,129.4160361
1068,울진항,울진항에서 공세항 해안도로,36.9883056,129.4140444
1069,남대천,남대천하구,36.9782167,129.4086389
1070,산포리,산포리갯바위,36.9503694,129.4193278
1071,산포리,산포리 백사장 갯바위,36.9435139,129.4203639
1072,산포리,산포리촛대바위,36.9394722,129.4209
1073,진복리,진복리백사장갯바위,36.9272778,129.4180972
1074,진복항,진복방파제 남측 갯바위,36.9145389,129.4156556
1075,오산항,오산2리 마을회관 갯바위,36.8966,129.4204111
1076,덕신휴게소,덕신휴게소 부근 백사장,36.8795,129.4188222
1077,추자도,다무레미 북측 해상,33.9691667,126.2861111
1078,추자도,다무레미 남측 해상,33.9625,126.2844444
1079,제주도 북부,함덕 서우봉해변 앞 해상,33.5525,126.665
1080,제주도 북부,달서 등대부근 해상,33.56,126.7016667
1081,제주도 북동부·우도,김녕리 앞 해상,33.5766389,126.775
1082,제주도 북동부·우도,반다여 부근,33.5241667,126.9330556
1083,제주도 북동부·우도,종달리 포구 앞 해상,33.5080556,126.9216667
1084,제주도 북동부·우도,천진항 앞 해상,33.4852778,126.9411111
1085,제주도 북동부·우도,산호샤홍조단괴해수욕장 앞 해상,33.5011111,126.9344444
1086,제주도 북동부·우도,독진곶 앞 해상,33.5297222,126.9469444
1087,제주도 북동부·우도,비양도 북측해상,33.5233333,126.9702778
1088,제주도 동부,성산일출봉 앞 해상,33.4555556,126.9519444
1089,제주도 동부,온평리 앞 해상,33.3952778,126.9177778
1090,제주도 남동부,태흥리포구 앞 해상,33.2663889,126.74
1091,제주도 남동부,비안포구 앞 해상,33.2708333,126.7238889
1092,제주도 남부,호도(범섬)부근 해상,33.2236111,126.5155556
1093,제주도 남부,강정포구 앞 노란부표 부근,33.2222222,126.4936111
1094,제주도 남부,강정포구 앞 입표 부근,33.2194444,126.4752778
1095,제주도 남서부·가파도·마라도,광포란 부근 해상,33.1741667,126.2866667
1096,제주도 남서부·가파도·마라도,형제도 부근 해상,33.2125,126.3097222
1097,홍도,방구서 부근,34.6728806,125.195625
1098,홍도,제비여 부근,34.6655167,125.1786056
1099,홍도,상연서 부근,34.6727194,125.1758667
1100,홍도,거북바위 인근,34.6950528,125.1895083
1101,홍도,장도 부근,34.7159583,125.1864639
1102,홍도,모도 부근,34.7238806,125.1929972
1103,홍도,공작새바위 인근,34.6964444,125.2153306
1104,홍도,흥어굴 인근,34.6825056,125.2090472
1105,만재도,백서 남측 선상,34.2218639,125.476
1106,만재도,만재도 북동측 선상,34.2133583,125.4863667
1107,만재도,국도 북측 선상,34.21085,125.4900667
1108,만재도,만재도 동측 선상,34.2050056,125.4854417
1109,만재도,만재도 남측 선상,34.2031111,125.4755056
1110,만재도,외마도 남측 선상,34.2100306,125.4626056
1111,만재도,만재도 서측 선상,34.2133083,125.4648278
1112,거차수도 부근,동거차 선착장 해상,34.2462639,125.9435667
1113,거차수도 부근,동거차 해수욕장 해상,34.2271417,125.9302611
1114,거차수도 부근,명도 부근 해상,34.2151083,125.8656361
1115,거차수도 부근,새여 부근 해상,34.2158972,125.8416194
1116,독거군도 부근,죽항 송도 해상,34.2664667,126.0947222
1117,독거군도 부근,슬도 북쪽 해상,34.2677167,126.1406778
1118,독거군도 부근,소슬도 해상,34.2565333,126.1518528
1119,독거군도 부근,독거 동쪽 선창 해상,34.2506694,126.1890333
1120,독거군도 부근,구도 해상,34.2651611,126.1689333
1121,독거군도 부근,초도앞 해상,34.2276083,126.1559361
1122,독거군도 부근,간암여 해상,34.2286194,126.1687417
1123,독거군도 부근,제주섬 해상,34.2251611,126.1725583
1124,추자군도,횡간도 북측 해상,34.0171528,126.3305
1125,추자군도,곽도 앞 해상,34.0079389,126.3545472
1126,추자군도,가인서 앞 해상,33.9992556,126.3629778
1127,추자군도,흑검도 앞 해상,33.9868778,126.340775
1128,추자군도,하추자도 북측 해상,33.9681472,126.3409861
1129,추자군도,하추자도 동측 해상,33.9543417,126.3614
1130,추자군도,하추자도와 청도 사이,33.9218806,126.3290639
1131,추자군도,묵리 마을 앞 해상,33.9434917,126.2991583
1132,추자군도,추자교 앞 해상,33.9584722,126.31035
1133,추자군도,추자항 북측 해상,33.9696944,126.3063806
1134,추자군도,대서리 인근 해상,33.9703861,126.2880972
1135,추자군도,1상추자도와 직구도 사이,33.97515,126.2573528
1136,낭도 부근,하과도 남측 해상,34.6218083,127.5379278
1137,낭도 부근,홍도 남측 해상,34.622275,127.5539778
1138,낭도 부근,목도 해상,34.594425,127.5407944
1139,낭도 부근,추도 북측 해상,34.6005806,127.5576083
1140,낭도 부근,상화도 서측 해상,34.5952778,127.593575
1141,낭도 부근,장구도 동측 해상,34.5920417,127.6055083
1142,여수엑스포 부근,향촌마을 부근,34.729325,127.8561806
1143,여수엑스포 부근,죽도 인근 해상,34.6876083,127.7959972
1144,광양만 부근,여수대교 부근,34.8947222,127.7049028
1145,광양만 부근,마도 부근,34.9446306,127.7782333
1146,황제도,알매섬 해상,34.1938083,127.06375
1147,황제도,맞담 해상,34.1899778,127.0891417
1148,황제도,흰여 해상,34.2177417,127.1402028
1149,황제도,대마도 해상,34.2034,127.1412389
1150,황제도,소마도 해상,34.2024583,127.1523444
1151,황제도,원도 해상,34.2145722,127.1906111
1152,손죽열도 부근,손죽 방파제 해상,34.2910528,127.3568556
1153,손죽열도 부근,잔거리 동쪽 해상,34.2978056,127.3866889
1154,손죽열도 부근,소거문도 북쪽 해상,34.2997333,127.3976444
1155,손죽열도 부근,소거문도 동쪽 해상,34.2825694,127.40635
1156,남해도 동부·신수도·창선도,후박 방파제 앞 해상,34.9241667,128.0158333
1157,남해도 동부·신수도·창선도,벽재마을 앞 입표부근 해상,34.9155556,127.9972222
1158,남해도 동부·신수도·창선도,증초 부근 해상,34.8352778,128.0227778
1159,남해도 동부·신수도·창선도,적량마을 앞 해상,34.8602778,128.0677778
1160,남해도 동부·신수도·창선도,송도 부근 해상,34.9077778,128.0494444
1161,남해도 남부,항도 앞바다,34.7161111,127.8597222
1162,남해도 남부,가천마을 앞바다,34.7169444,127.9033333
1163,남해도 남부,조도부근 해상,34.6936111,128.0425
1164,두미도,청석골,37.63318,125.678992
1165,두미도,남구마을 남측 해상,34.6944444,128.2038889
1166,두미도,북구마을 앞 해상,34.7111111,128.1841667
1167,두미도,고운마을 앞 해상,34.7119444,128.1777778
1168,칠천도·가조도,수야방도 서측 해상,35.0186111,128.6355556
1169,칠천도·가조도,슬응도 부근 해상,34.9733333,128.6277778
1170,칠천도·가조도,장안서 부근 해상,34.9755556,128.6441667
1171,칠천도·가조도,황덕도 부근 해상,35.0058333,128.6236111
1172,칠천도·가조도,돌끝여 부근 해상,34.9597222,128.5011111
1173,칠천도·가조도,마당서 부근 해상,34.9677778,128.5060556
1174,칠천도·가조도,만금여 부근 해상,34.95,128.5047222
1175,한산도·용초도,용머리 부근 해상,34.7302778,128.4908333
1176,한산도·용초도,호두마을 남측 해상,34.7327778,128.5008333
1177,한산도·용초도,죽도부근 해상,34.7294444,128.5188889
1178,한산도·용초도,의암마을 앞바다,34.7594444,128.4958333
1179,가덕도,대항새바지에서 누릉여 사이 해상,35.0211111,128.8427778
1180,가덕도,동선새바지에서 기도원 사이 해상,35.05,128.8527778
1181,영도,생도 부근,35.0377778,129.0913889
1182,울릉도,코끼리 바위 부근 해상,37.5427778,130.8538889
1183,울릉도,남양항 부근 해상,37.4566667,130.8463889
1184,추자도,상추자도 남측 입표 부근,33.9483333,126.2955556
1185,추자도,섬도 남측 해상,33.9377778,126.3138889
1186,간수제도,소평도 해상,34.2553111,127.4459972
1187,간수제도,갈퀴섬 해상,34.2343556,127.4663028
1188,간수제도,소두역서 해상,34.2560111,127.548325
1189,간수제도,대두역서 해상,34.2492833,127.5336639
1190,대삼부도,노루섬 인근 해상,34.0612639,127.3828056
1191,대삼부도,무구여 인근 해상,34.0524111,127.3872111
1192,연도,신강서 인근 해상,34.4649028,127.806525
1193,연도,동부앞 인근 해상,34.4297389,127.8085889
1194,연도,소룡단 인근 해상,34.407975,127.8069944
1195,연도,덕포앞 해상,34.4141139,127.7934889
1196,연도,역포항 인근 해상,34.4295917,127.7965222
1197,연도,땅포앞 인근 해상,34.4411111,127.792575
1198,진주만 부근,삼천포대교 밑,34.9278111,128.0517972
1199,자란만 부근,두도 해상,34.8883083,128.2849444
1200,추도 부근,개바위 끝 부근,34.7461389,128.3035167
1201,추도 부근,대항승선장부근 해상,34.7586778,28.3003361
1202,추도 부근,흰여 부근,34.7580861,128.3053667
1203,연화도 부근,우서부근 해상,34.6704417,128.3633194
1204,연화도 부근,연화도 방파제 인근해상,34.6443389,128.3710639
1205,연화도 부근,연화항 부근 해상,34.6525333,128.3489778
1206,연화도 부근,연화항 부근 해상,34.6527194,128.3505556
1207,갈도 부근,갈도 북측,34.5729472,128.1826194
1208,갈도 부근,귀신여 우측 하단,34.5576611,128.1808806
1209,당항포 부근,동진교 해상,35.0775278,128.4686667
1210,당항포 부근,카페이안펜션 해상,35.0725556,128.4505278
1211,부산항 부근,몰운대 전망대 해상,35.0332667,128.973775
1212,수영만 부근,광안대교 인근 해상,35.1512861,129.13845
1213,수영만 부근,앞산초 인근 해상,35.1512722,129.1706583
1214,수영만 부근,청사포항 인근 해상,35.1592667,129.1945611
1215,대청도·소청도,선진포항 앞바다,37.8316667,124.7294444
1216,대청도·소청도,곽암 부근,37.7772222,124.78
1217,대청도·소청도,가두암 부근,37.7513889,124.7336111
1218,대청도·소청도,갑죽도 부근,37.8011111,124.6638889
1219,장봉도,비가지(날가지도) 부근,37.5227778,126.3177778
1220,장봉도,부도 부근,37.5380556,126.3975
1221,자월도,묵통도 부근,37.2777778,126.2791667
1222,자월도,입암두 앞바다,37.2694444,126.3133333
1223,자월도,굴뿌리 앞바다,37.2583333,126.3530556
1224,자월도,월암두(부근여) 부근,37.2394444,126.3186111
1225,덕적도·소야도,선미도 부근,37.2783333,126.0730556
1226,덕적도·소야도,단탄 부근,37.2591667,126.0866667
1227,덕적도·소야도,용담갑 앞바다,37.2161111,126.0808333
1228,덕적도·소야도,감증탄 부근,37.2055556,126.0997222
1229,이작도·승봉도,벌도와 동백도 사이,37.1944444,126.2105556
1230,이작도·승봉도,동백도 동측 앞바다,37.1986111,126.22
1231,이작도·승봉도,오형제바위 앞바다,37.1852778,126.2602778
1232,이작도·승봉도,송곳부리 앞바다,37.1613889,126.2877778
1233,이작도·승봉도,5  작은풀안해수욕장 앞바다,37.165,126.2558333
1234,이작도·승봉도,6  선착장 앞바다,37.18,126.2461111
1235,문갑도·선갑도,문갑도 감증탄 부근,37.2036111,126.0891667
1236,문갑도·선갑도,문갑도 할미취 부근,37.1866667,126.1211111
1237,문갑도·선갑도,선갑도 서측 바다,37.0922222,126.0436111
1238,문갑도·선갑도,선갑도 우두암 부근,37.0586111,126.0808333
1239,백아도·굴업도,백아도 오도 부근,37.0644444,125.9461111
1240,백아도·굴업도,백아도 광대도 부근,37.0566667,125.9686111
1241,백아도·굴업도,굴업도 동뿌리 앞바다,37.1986111,125.9991667
1242,백아도·굴업도,굴업도 항도 부근,37.18,125.9802778
1243,입파도·국화도,입파도 학산서 부근,37.1222222,126.5272222
1244,입파도·국화도,입파도 남서측 바다,37.0927778,126.5227778
1245,입파도·국화도,국화도 북동측 바다,37.0805556,126.5633333
1246,입파도·국화도,국화도 등표 부근,37.0491667,126.5455556
1247,풍도·난지도,풍도 북동측 바다,37.1211111,126.4002778
1248,풍도·난지도,풍도 남동측 바다,37.0841667,126.4127778
1249,풍도·난지도,풍도 남서측 바다,37.0852778,126.3783333
1250,풍도·난지도,대난지도 철도 부근,37.0569444,126.4111111
1251,풍도·난지도,5  소난지도 우모도 부근,37.0280556,126.4494444
1252,풍도·난지도,6  소난지도 비경도 부근,37.0280556,126.4297222
1253,원산도·삽시도,증도 부근,36.3902778,126.4216667
1254,원산도·삽시도,납작도 부근,36.3405556,126.3891667
1255,원산도·삽시도,면삽지 앞바다,36.3438889,126.3311111
1256,원산도·삽시도,물건서 부근,36.3613889,126.3166667
1257,호도·녹도·외연도,명덕도 부근,36.3130556,126.25
1258,호도·녹도·외연도,석도 부근,36.2658333,126.2794444
1259,호도·녹도·외연도,소화사도 부근,36.2561111,126.2769444
1260,호도·녹도·외연도,모도 부근,36.2716667,126.2472222
1261,호도·녹도·외연도,5  흑서 부근,36.2313889,126.0644444
1262,호도·녹도·외연도,6  초망서 부근,36.2019444,126.0872222
1263,어청도·연도,어청도 등대 북쪽 부근,36.1322222,125.9727778
1264,어청도·연도,어청도 한우담 앞바다,36.1208333,126.0016667
1265,어청도·연도,어청도 가진서 부근,36.1058333,125.9947222
1266,어청도·연도,연도 북서쪽 부근,36.0902778,126.4263889
1267,십이동파도·비안도,십이동파도 북도 북서측 바다,36.0022222,126.2175
1268,십이동파도·비안도,십이동파도 소금도 남서측 바다,35.9786111,126.2277778
1269,십이동파도·비안도,비안도 두리도 부근,35.745,126.4658333
1270,십이동파도·비안도,비안도 치두도 부근,35.7280556,126.4572222
1271,말도·방축도,말도 서쪽 바다,35.8580556,126.3025
1272,말도·방축도,말도 등대 앞바다,35.8625,126.3158333
1273,말도·방축도,말도와 보농도 사이 바다,35.8555556,126.3280556
1274,말도·방축도,솔푼서 부근,35.8605556,126.3458333
1275,말도·방축도,5  방축도 동쪽 바다,35.855,126.3902778
1276,말도·방축도,6  흑도와 골서 부근,35.8277778,126.3769444
1277,선유도·무녀도·장자도·신시도,증서 부근,35.8108333,126.3836111
1278,선유도·무녀도·장자도·신시도,광서 부근,35.8272222,126.3955556
1279,선유도·무녀도·장자도·신시도,도토머리도 부근,35.8344444,126.44
1280,선유도·무녀도·장자도·신시도,"만서, 만자서 부근",35.7969444,126.4436111
1281,선유도·무녀도·장자도·신시도,"5  만서, 만자서 앞바다",35.7880556,126.4519444
1282,선유도·무녀도·장자도·신시도,6  장구도 앞바다,35.7922222,126.4002778
1283,왕등도·위도,하왕등도 서쪽 바다,35.6377778,126.1011111
1284,왕등도·위도,상왕등도 대구섬 부근,35.6611111,126.1186111
1285,왕등도·위도,상왕등도 열도 부근,35.6586111,126.1372222
1286,왕등도·위도,식도 북쪽 바다,35.6366667,126.2158333
1287,왕등도·위도,5  위도 달루도 부근,35.6113889,126.2575
1288,왕등도·위도,6  위도 외조도 부근,35.5833333,126.2272222
1289,비금도·도초도,우세도 부근,34.7941667,125.9238889
1290,비금도·도초도,토막도 부근,34.8241667,125.9541667
1291,비금도·도초도,가도 부근,34.6519444,125.9686111
1292,비금도·도초도,종달암 부근,34.6466667,125.9213889
1293,흑산도·삼태도,"대장도, 소장도 부근",34.6847222,125.3705556
1294,흑산도·삼태도,대흑산도 호장도 부근,34.7108333,125.4111111
1295,흑산도·삼태도,대흑산도 서산말 남동쪽 바다,34.6180556,125.4438889
1296,흑산도·삼태도,삼태도 넓은여 부근,34.3936111,125.2480556
1297,노화도·보길도·소안도,송도 부근,34.2169444,126.5413889
1298,노화도·보길도·소안도,각씨여 부근,34.2177778,126.6575
1299,노화도·보길도·소안도,소안도 거망치각 앞바다,34.0980556,126.66
1300,노화도·보길도·소안도,예작도 부근,34.1269444,126.5830556
1301,노화도·보길도·소안도,5  보길도 보죽각 앞바다,34.1105556,126.5036111
1302,노화도·보길도·소안도,6  토금도 부근,34.1622222,126.4652778
1303,신지도,완도 대구두 앞바다,34.2747222,126.7825
1304,신지도,신지도 최남단 앞바다,34.295,126.8488889
1305,신지도,제도 부근,34.3044444,126.8980556
1306,신지도,모황도 부근,34.2891667,126.9141667
1307,청산도·대모도,대모도 마도말 앞바다,34.1841667,126.7283333
1308,청산도·대모도,장도 부근,34.2058333,126.8380556
1309,청산도·대모도,항도 서측 바다,34.1841667,126.955
1310,청산도·대모도,불근도 부근,34.1491667,126.765
1311,거금도,연흥도 부근,34.4594444,127.0955556
1312,거금도,감등서 부근,34.5019444,127.2397222
1313,거금도,소독도 부근,34.4258333,127.2191667
1314,거금도,형제도 부근,34.4252778,127.1208333
1315,여서도·거문도,거문도 반여 부근,34.0719444,127.3091667
1316,여서도·거문도,거문도 오지여 앞바다,34.0302778,127.3411111
1317,여서도·거문도,거문도 배치바위 앞바다,34.0011111,127.3186111
1318,여서도·거문도,만수용단 앞바다,34.0183333,127.2788889
1319,나로도,보돌서 부근,34.5275,127.5344444
1320,나로도,내나로도 등대 앞바다,34.4919444,127.5188889
1321,나로도,외나로도 노랑바위 앞바다,34.4047222,127.4919444
1322,나로도,숨은여 부근,34.4927778,127.4344444
1323,금오도·안도,용두 앞바다,34.5497222,127.6916667
1324,금오도·안도,문서 부근,34.5519444,127.7711111
1325,금오도·안도,배다서 부근,34.5269444,127.8030556
1326,금오도·안도,구몽암 부근,34.475,127.7661111
1327,사량도,농개도 부근,34.8394444,128.1630556
1328,사량도,죽도 부근,34.8241667,128.1730556
1329,사량도,화도 부근,34.8061111,128.2602778
1330,사량도,남무도 부근,34.7702778,128.2216667
1331,욕지도,모도 부근,34.6586111,128.2525
1332,욕지도,초도 부근,34.6269444,128.2986111
1333,욕지도,가동서 부근,34.6122222,128.2755556
1334,욕지도,흑초 부근,34.61,128.2591667
1335,미륵도,태도 부근,34.8397222,128.3169167
1336,미륵도,곤리도 부근,34.7872222,128.3630556
1337,미륵도,가마도 부근,34.7655556,128.3652778
1338,미륵도,학림도 부근,34.7580556,128.4194444
1339,비진도·매물도,비진도 춘복도 부근,34.7208333,128.4552778
1340,비진도·매물도,비진도 소장서(노루여) 부근,34.7002778,128.455
1341,비진도·매물도,대매물도 가익도 부근,34.6452778,128.545
1342,비진도·매물도,소매물도 등가도 부근,34.6127778,128.5969444
1343,거제도 북서부,만금여 부근,34.9486111,128.4961111
1344,거제도 북서부,수도 부근,34.9272222,128.4819444
1345,거제도 북서부,지도 부근,34.9058333,128.4833333
1346,거제도 북서부,화도 부근,34.8191667,128.4655556
1347,거제도 북동부,망와도 부근,35.0411111,128.7244444
1348,거제도 북동부,이수도 부근,34.9730556,128.7344444
1349,거제도 북동부,양지암취 앞바다,34.9052778,128.7627778
1350,거제도 북동부,지세포항 앞바다,34.8327778,128.7505556
1351,거제도 남부,대덕도 부근,34.6922222,128.5441667
1352,거제도 남부,소병태도 부근,34.6980556,128.6177778
1353,거제도 남부,갈곶도 부근,34.7269444,128.6888889
1354,거제도 남부,외조라도 부근,34.775,128.7119444
1355,연평도,구지둔턱,37.6283333,125.6802778
1356,석모도,외포리선착장 입표 부근 해상,37.6958333,126.3783333
1357,석모도,서도부근 해상,37.7438889,126.2822222
1358,석모도,선모도 부근 해상,37.7119444,126.3233333
1359,시도,부도 부근 해상,37.5327778,126.3944444
1360,시도,노랑섬 서측 간출암 부근 해상,37.5116667,126.4777778
1361,영종도·용유도,왕산해변 북서측 해상,37.4583333,126.3530556
1362,영종도·용유도,영종도 북측수문 북서측 해상,37.463656,126.348078
1363,무의도,소무의도 동측 해상,37.3691667,126.4472222
1364,무의도,해녀도 부근 해상,37.3630556,126.4402778
1365,무의도,실미도 남서측 해상,37.3952778,126.3891667
1366,안면도 북부,방포항 방파제 앞 해상,36.5025,126.3266667
1367,안면도 북부,죽도 부근 해상,36.5216667,126.4161111
1368,안면도 북부,황도 연육교 부근 해상,36.5936111,126.3752778
1369,안면도 남부,목도 부근 해상,36.4133333,126.4536111
1370,안면도 남부,외도 부근 해상,36.4522222,126.3122222
1371,가의도,남측 곶부리 앞 해상,36.6752778,126.0841667
1372,가의도,단도 부근 해상,36.6675,126.0377778
1373,가의도,선착장 서축 갯바위 앞 해상,36.6825,126.0594444
1374,가의도,선착장 앞 입표 부근 해상,36.6833333,126.0733333
1375,안마도·석만도,문 끝 앞바다,35.3294444,126.0130556
1376,안마도·석만도,쌀썩은여 앞바다,35.3316667,126.0322222
1377,안마도·석만도,감곽여 부근 해상,35.3508333,126.0563889
1378,안마도·석만도,똥 섬 부근 해상,35.3633333,126.0583333
1379,안마도·석만도,쎄지기 사이 해상,35.3708333,126.0577778
1380,안마도·석만도,대장재여 부근 해상,35.3652778,126.0188889
1381,안마도·석만도,장재여 부근 해상,35.3597222,126.0091667
1382,안마도·석만도,죽도 부근 해상,35.3563889,125.9991667
1383,안마도·석만도,근여 부근 해상,35.3575,125.9947222
1384,송이도,양골 앞 바다,35.2869444,126.1566667
1385,송이도,큰내기 앞 바다,35.2952778,126.1363889
1386,송이도,민머리 앞 바다,35.2666667,126.1408333
1387,고이도·매화도·선도·증도,선도선창부근 해상,34.9875,126.2725
1388,고이도·매화도·선도·증도,면도부근 해상,34.9638889,126.125
1389,자은도,원도 부근,34.8505556,126.0505556
1390,압해도,효지도 철탑아래 해상,34.9113889,126.3436111
1391,압해도,대교 밑 해상,34.9125,126.3377778
1392,압해도,대교동측 해상,34.9127778,126.3316667
1393,압해도,압해도 선착장 앞 해상,34.8205556,126.3705556
1394,장산도,신도 부근,34.6788889,126.1647222
1395,상조도·하조도·관매도,고치서 북서측 간출암 부근 해상,34.2252778,126.0419444
1396,상조도·하조도·관매도,고치서 입표 부근 해상,34.2188889,126.0366667
1397,가거도,두억서 부근 해상,34.105,125.0983333
1398,가거도,"오동여, 검등여 사이 부근 해상",34.0977778,125.0936111
1399,완도,납당여 부근 해상,34.3886111,126.7291667
1400,완도,대야리 앞 해상,34.3702778,126.7455556
1401,완도,장도 앞 해상,34.3580556,126.7430556
1402,금당도,서방여부근,34.4319444,127.0408333
1403,금일도·생일도,낭도 부근,34.3202778,127.0172222
1404,초 도,외항도 내항도 사이,34.2138889,127.2147222
1405,돌산도,예교마을 앞 입표 부근 해상,34.6075,127.7302778
1406,돌산도,신기마을 앞 노란색 부표 부근,34.5988889,127.7336111
1407,돌산도,화태도 대횡간도사이 입표 부근,34.5819444,127.75
1408,돌산도,작금마을 동측 입표 부근,34.5911111,127.7561111
1409,돌산도,밤섬 남측 해상,34.6080556,127.7522222
1410,돌산도,백포 간출여 주변 해상,37.4758333,126.3547222
1411,돌산도,죽도 부근 해상,34.6866667,127.7925
1412,돌산도,내치도 부근 해상,34.6947222,127.7858333
1413,남해도 북부,와도부근 해상,34.9391667,127.8583333
1414,남해도 북부,차면리 방파제 북측 입표 부근,34.9330556,127.8552778
1415,남해도 북부,난초섬 부근,34.9041667,127.8266667
1416,남해도 북부,남상리 앞바다,34.8422222,127.7994444
1417,남해도 북부,작장리 앞바다,34.8236111,127.8025
1418,남해도 북부,서상리 앞바다,34.8091667,127.8113889
1419,남해도 북부,노량수도,34.9508333,127.8969444
1420,남해도 북부,왕지마을 앞바다,34.9455556,127.9158333
1421,남해도 북부,상돈도 장도 사이 해상,34.9205556,127.9375
1422,남해도 동부·신수도·창선도,지족리 앞바다,34.8338889,128.0105556
